title,latLong,placename,postcode,description

"Café Kitty, London: ‘Right in the heart of things’ – restaurant review","51.512679,-0.13408","Café Kitty","W1F 0BT","Café Kitty, London: ‘Right in the heart of things’ – restaurant review<br>https://www.theguardian.com/food/2023/dec/24/cafe-kitty-london-right-in-the-heart-of-things"
"Café Lapérouse, London: ‘Dismal, expensive, and I had to cadge bread from the next table’ – restaurant review","51.504176,-0.125854","Café Lapérouse","SW1A 2EX","Café Lapérouse, London: ‘Dismal, expensive, and I had to cadge bread from the next table’ – restaurant review<br>https://www.theguardian.com/food/2023/dec/17/cafe-laperouse-london-eye-wateringly-expensive-restaurant-review"
"Deanes Meat Locker, Belfast: ‘They have the good stuff’ – restaurant review","54.595716,-5.932862","Deanes Meat Locker","BT1 6PF","Deanes Meat Locker, Belfast: ‘They have the good stuff’ – restaurant review<br>https://www.theguardian.com/food/2023/dec/10/jay-rayner-restaurant-review-deanes-meat-locker-belfast-they-have-the-good-stuff"
"Merchants 1688, Lancaster: ‘Seriously impressive food’ – restaurant review","54.04922,-2.804057","Merchants 1688","LA1 1YN","Merchants 1688, Lancaster: ‘Seriously impressive food’ – restaurant review<br>https://www.theguardian.com/food/2023/dec/03/jay-rayner-restaurant-review-merchants-1688-lancaster-seriously-impressive-food"
"Domo, Sheffield: ‘They’re determined to show you a good time, and they do’ – restaurant review","53.389033,-1.472469","Domo","S3 8DH","Domo, Sheffield: ‘They’re determined to show you a good time, and they do’ – restaurant review<br>https://www.theguardian.com/food/2023/nov/26/jay-rayner-restaurant-review-domo-sheffield-they-are-determined-to-show-you-a-good-time"
"Colmans Seafood Temple, South Shields: ‘All the things you want’ – restaurant review","54.998645,-1.413449","Colmans Seafood Temple","NE33 2LD","Colmans Seafood Temple, South Shields: ‘All the things you want’ – restaurant review<br>https://www.theguardian.com/food/2023/nov/19/colmans-seafood-temple-south-shields-all-the-things-you-want-restaurant-review"
"The Small Canteen, Newcastle: ‘Bloody marvellous’ – restaurant review","54.981925,-1.598571","The Small Canteen","NE2 1RH","The Small Canteen, Newcastle: ‘Bloody marvellous’ – restaurant review<br>https://www.theguardian.com/food/2023/nov/12/jay-rayner-restaurant-review-the-small-canteen-newcastle-is-bloody-marvellous"
"Gloriosa, Glasgow: ‘This is where the good things are’ – restaurant review","55.866917,-4.290713","Gloriosa","G3 8TL","Gloriosa, Glasgow: ‘This is where the good things are’ – restaurant review<br>https://www.theguardian.com/food/2023/nov/05/gloriosa-glasgow-this-is-where-the-good-things-are-restaurant-review"
"Chop Chop at the Hippodrome: ‘Run by a Soho legend’ – restaurant review","51.511466,-0.129042","Chop Chop at the Hippodrome","WC2H 7JH","Chop Chop at the Hippodrome: ‘Run by a Soho legend’ – restaurant review<br>https://www.theguardian.com/food/2023/oct/29/chop-chop-at-the-hippodrome-restaurant-review-run-by-a-soho-legend"
"Vervain, Croydon: ‘The terrific cooking deserves a snazzier setting’ – restaurant review","51.339105,-0.06164","Vervain","CR2 8YA","Vervain, Croydon: ‘The terrific cooking deserves a snazzier setting’ – restaurant review<br>https://www.theguardian.com/food/2023/oct/22/jay-rayner-vervain-croydon-terrific-cooking-deserves-snazzier-setting-restaurant-review"
"The Campaner, London SW1: ‘Excellent food, but at eye-watering prices’ – restaurant review","51.489451,-0.152159","The Campaner","SW1W 8BG","The Campaner, London SW1: ‘Excellent food, but at eye-watering prices’ – restaurant review<br>https://www.theguardian.com/food/2023/oct/15/jay-rayner-the-camapner-london-restaurant-review-excellent-food-eye-watering-prices"
"Fin Boys, Cambridge: ‘Inventive cookery and seriously good ingredients’ – restaurant review","52.20115,0.133814","Fin Boys","CB1 2AD","Fin Boys, Cambridge: ‘Inventive cookery and seriously good ingredients’ – restaurant review<br>https://www.theguardian.com/food/2023/oct/08/jay-rayner-restaurant-review-fin-boys-cambridge-inventive-cookery-and-seriously-good-ingredients"
"Sam & Jak, Cirencester: ‘A story of skills and good taste’ – restaurant review","51.716076,-1.968195","Sam & Jak","GL7 1JH","Sam & Jak, Cirencester: ‘A story of skills and good taste’ – restaurant review<br>https://www.theguardian.com/food/2023/oct/01/jay-rayner-restaurant-review-sam-and-jak-cirencester-a-lovely-story-of-good-taste"
"Tendril, London: ‘A hotbed of vegetable-love’ – restaurant review","51.514628,-0.143022","Tendril","W1B 2LQ","Tendril, London: ‘A hotbed of vegetable-love’ – restaurant review<br>https://www.theguardian.com/travel/2023/sep/24/jay-rayner-restaurant-review-tendril-london-a-hotbed-of-vegetable-love"
"The Edinburgh Castle, Manchester: ‘A great place to eat’ – restaurant review","53.48438,-2.229921","The Edinburgh Castle","M4 5EP","The Edinburgh Castle, Manchester: ‘A great place to eat’ – restaurant review<br>https://www.theguardian.com/travel/2023/sep/17/jay-rayner-restaurant-review-the-edinburgh-castle-manchester-a-great-place-to-eat"
"Origin City, London: ‘A nose-to-tail ethos’ – restaurant review","51.518487,-0.101904","Origin City","EC1A 9JR","Origin City, London: ‘A nose-to-tail ethos’ – restaurant review<br>https://www.theguardian.com/food/2023/sep/10/origin-city-london-a-nose-to-tail-ethos-restaurant-review"
"Masala Zone, Piccadilly Circus: ‘A profoundly cheering venture’ – restaurant review","51.509774,-0.13404","Masala Zone Piccadilly Circus","W1J 9HP","Masala Zone, Piccadilly Circus: ‘A profoundly cheering venture’ – restaurant review<br>https://www.theguardian.com/food/2023/sep/03/masala-zone-piccadilly-circus-a-profoundly-cheering-venture-restaurant-review"
"Epicurus, London: ‘It deserves to be full’ – restaurant review","51.542337,-0.147764","Epicurus","NW1 8AH","Epicurus, London: ‘It deserves to be full’ – restaurant review<br>https://www.theguardian.com/food/2023/aug/27/jay-rayner-restaurant-review-epicurus-london-it-deserves-to-be-full"
"The Empire Café, Leeds: ‘Doing the good things’ – restaurant review","53.797352,-1.541221","The Empire Café","LS1 6DB","The Empire Café, Leeds: ‘Doing the good things’ – restaurant review<br>https://www.theguardian.com/food/2023/aug/20/jay-rayner-restaurant-review-the-empire-cafe-leeds-it-made-me-smile"
"Lisbon Tapas, Wrexham: ‘A place that is genuinely pleased to see you’ – restaurant review","53.044688,-2.993141","Lisbon Tapas","LL13 8LS","Lisbon Tapas, Wrexham: ‘A place that is genuinely pleased to see you’ – restaurant review<br>https://www.theguardian.com/food/2023/aug/13/jay-rayner-restaurant-review-lisbon-tapas-wrexham-a-very-nice-time"
"The Empire Café, Leeds: ‘Doing the good things’ – restaurant review","53.797352,-1.541221","The Empire Café","LS1 6DB","The Empire Café, Leeds: ‘Doing the good things’ – restaurant review<br>https://www.theguardian.com/food/2023/aug/20/jay-rayner-restaurant-review-the-empire-cafe-leeds-it-made-me-smile"
"Lisbon Tapas, Wrexham: ‘A place that is genuinely pleased to see you’ – restaurant review","53.044688,-2.993141","Lisbon Tapas","LL13 8LS","Lisbon Tapas, Wrexham: ‘A place that is genuinely pleased to see you’ – restaurant review<br>https://www.theguardian.com/food/2023/aug/13/jay-rayner-restaurant-review-lisbon-tapas-wrexham-a-very-nice-time"
"The Botanist, Chester: ‘I should say, Wow!’ – restaurant review","53.191263,-2.89026","The Botanist","CH1 2DY","The Botanist, Chester: ‘I should say, Wow!’ – restaurant review<br>https://www.theguardian.com/food/2023/jul/30/jay-rayner-restaurant-review-the-botanist-chester-i-should-say-wow"
"Sharkbait & Swim, London: ‘Rock oysters here are plump and pert’ – restaurant review","51.478112,-0.026391","Sharkbait & Swim","SE8 4BX","Sharkbait & Swim, London: ‘Rock oysters here are plump and pert’ – restaurant review<br>https://www.theguardian.com/food/2023/jul/23/jay-rayner-restaurant-review-sharkbait-and-swim-london"
"Lark, Bury St Edmunds: ‘Clever, relaxed, and hugely enjoyable’ – restaurant review","52.245469,0.716433","Lark","IP33 1UZ","Lark, Bury St Edmunds: ‘Clever, relaxed, and hugely enjoyable’ – restaurant review<br>https://www.theguardian.com/food/2023/jul/16/lark-bury-st-edmunds-clever-relaxed-and-hugely-enjoyable-restaurant-review"
"Burnt Smokehouse and Rack City Ribs, London: ‘What a burger!’ - restaurant reviews","51.569444,-0.006823","Burnt Smokehouse","E10 6JT","Burnt Smokehouse and Rack City Ribs, London: ‘What a burger!’ - restaurant reviews<br>https://www.theguardian.com/food/2023/jul/02/burnt-smokehouse-and-rack-city-ribs-restaurant-reviews"
"Los Moros, York: ‘A lot going on in a very small space’ – restaurant review","53.960784,-1.082162","Los Moros","YO1 7HU","Los Moros, York: ‘A lot going on in a very small space’ – restaurant review<br>https://www.theguardian.com/food/2023/jun/25/los-moros-york-restaurant-review-a-lot-going-on-in-a-very-small-space"
"La Gamba, London: ‘A pleasing take on the Spanish repertoire’ – restaurant review","51.505767,-0.116825","La Gamba","SE1 8XX","La Gamba, London: ‘A pleasing take on the Spanish repertoire’ – restaurant review<br>https://www.theguardian.com/food/2023/jun/18/la-gamba-london-a-pleasing-take-on-the-spanish-repertoire-restaurant-review"
"The Suffolk, Aldeburgh: ‘A sweet celebration, perfectly executed’ – restaurant review","52.151325,1.601567","The Suffolk Sur-Mer","IP15 5AQ","The Suffolk, Aldeburgh: ‘A sweet celebration, perfectly executed’ – restaurant review<br>https://www.theguardian.com/food/2023/jun/11/the-suffolk-aldeburgh-restaurant-review-a-sweet-celebration-perfectly-executed"
"The Parakeet, London: ‘The food is great but beware of the dogs’ – restaurant review","51.550103,-0.140557","The Parakeet","NW5 2AA","The Parakeet, London: ‘The food is great but beware of the dogs’ – restaurant review<br>https://www.theguardian.com/food/2023/jun/04/the-parakeet-london-the-food-is-great-but-beware-of-the-dogs-restaurant-review"
"Lir and Native Seafood & Scran, Northern Ireland: ‘Born out of a fascination with the sea’ – restaurant review","55.144779,-6.67591","Lir and Native Seafood & Scran","BT52 1EY","Lir and Native Seafood & Scran, Northern Ireland: ‘Born out of a fascination with the sea’ – restaurant review<br>https://www.theguardian.com/food/2023/may/28/jay-rayner-restaurant-review-lir-northern-ireland-sensational-fresh-seafood"
"Everest Curry King, London: ‘It’s a simple place, but oh so good’","51.466181,-0.019647","Everest Curry King","SE13 7SW","Everest Curry King, London: ‘It’s a simple place, but oh so good’<br>https://www.theguardian.com/food/2023/may/21/restaurant-review-jay-rayner-everest-curry-king-london-a-simple-place-but-oh-so-good"
"Toot, Plymouth: ‘A very good time indeed’ - restaurant review","50.373532,-4.141314","Toot","PL1 1QX","Toot, Plymouth: ‘A very good time indeed’ - restaurant review<br>https://www.theguardian.com/food/2023/may/07/toot-plymouth-restaurant-review-jay-rayner"
"Alexandros Greek Restaurant, Carlisle: ‘Somewhere that will see you right’ – restaurant review","54.893055,-2.930176","Alexandros Greek Restaurant & Deli","CA1 1DR","Alexandros Greek Restaurant, Carlisle: ‘Somewhere that will see you right’ – restaurant review<br>https://www.theguardian.com/food/2023/apr/30/jay-rayner-review-alexandros-carlisle-excellent-greek-family-restaurant"
"Cavo, London: ‘The emptiest of empty vessels’ – restaurant review","51.515309,-0.12985","Cavo","WC2H 0LA","Cavo, London: ‘The emptiest of empty vessels’ – restaurant review<br>https://www.theguardian.com/food/2023/apr/23/jay-rayner-restaurant-review-cavo-london-the-emptiest-of-empty-vessels"
"The Kolossi/Attica, London: ‘It’s not revelatory, it’s much better than that’ – restaurant review","51.525985,-0.109637","The Kolossi/Attica","EC1R 4RR","The Kolossi/Attica, London: ‘It’s not revelatory, it’s much better than that’ – restaurant review<br>https://www.theguardian.com/food/2023/apr/16/jay-rayner-restaurant-review-the-kolossi-attica-london-much-better-than-revelatory"
"Sakura, Salford: ‘It’s all delightful’ – restaurant review","53.485459,-2.257025","Sakura","M3 6AX","Sakura, Salford: ‘It’s all delightful’ – restaurant review<br>https://www.theguardian.com/food/2023/apr/09/jay-rayner-restaurant-review-sakura-salford-it-is-all-delightful-restaurant-review"
"Speedboat Bar, London: ‘Completely irresistible style’ – restaurant review","51.511199,-0.132598","Speedboat Bar","W1D 6DL","Speedboat Bar, London: ‘Completely irresistible style’ – restaurant review<br>https://www.theguardian.com/food/2023/apr/02/jay-rayner-restaurant-review-speedboat-bar-london-completely-irresistible-style"
"111 by Modou, Glasgow: ‘A banging recipe for a great place’ – restaurant review","55.888636,-4.307297","111 by Modou","G12 0JU","111 by Modou, Glasgow: ‘A banging recipe for a great place’ – restaurant review<br>https://www.theguardian.com/food/2023/mar/26/jay-rayner-restaurant-review-111-by-modou-glasgow-a-banging-recipe-for-a-great-place"
"Socca, London: ‘Much is very good, but the missteps baffle’ – restaurant review","51.509973,-0.151714","Socca","W1K 2PS","Socca, London: ‘Much is very good, but the missteps baffle’ – restaurant review<br>https://www.theguardian.com/food/2023/mar/19/jay-rayner-restaurant-review-socca-london-the-food-is-good-but-the-missteps-baffle"
"Isibani, London: ‘Bathe me in the pepper soup’ – restaurant review","51.501364,-0.162436","Isibani","SW1X 7QL","Isibani, London: ‘Bathe me in the pepper soup’ – restaurant review<br>https://www.theguardian.com/food/2023/mar/12/jay-rayner-restaurant-review-isibani-london-bathe-me-in-the-pepper-soup"
"10 Tib Lane, Manchester: ‘There’s a lot to be stimulated by’ – restaurant review","53.480423,-2.244501","10 Tib Lane","M2 4JB","10 Tib Lane, Manchester: ‘There’s a lot to be stimulated by’ – restaurant review<br>https://www.theguardian.com/food/2023/mar/05/jay-rayner-restaurant-review-10-tib-lane-manchester-an-awful-lot-to-be-stimulated-by"
"Kino, Leeds: ‘Expect dramatic bursts of harissa and tahini’ – restaurant review","53.799974,-1.540661","Kino","LS1 6NU","Kino, Leeds: ‘Expect dramatic bursts of harissa and tahini’ – restaurant review<br>https://www.theguardian.com/food/2023/feb/26/jay-rayner-restaurant-review-mormor-at-kino-opera-north-leeds-will-care-for-you-well"
"Matsudai Ramen, Cardiff: ‘Bowls of deep care and thoughtfulness’ – restaurant review","51.470829,-3.186194","Matsudai Ramen","CF11 6QS","Matsudai Ramen, Cardiff: ‘Bowls of deep care and thoughtfulness’ – restaurant review<br>https://www.theguardian.com/food/2023/feb/19/matsudai-ramen-cardiff-bowls-of-deep-care-and-thoughtfulness-restaurant-review"
"The Sportsman Club, West Bromwich: ‘You’ve won at lunch’ – restaurant review","52.512972,-1.983821","The Sportsman Club","B70 6PP","The Sportsman Club, West Bromwich: ‘You’ve won at lunch’ – restaurant review<br>https://www.theguardian.com/food/2023/feb/05/the-sportsman-club-west-bromwich-youve-won-at-lunch-restaurant-review"
"Supawan Thai, London: ‘Takes your mouth on the ride of its life’ – restaurant review","51.531771,-0.12064","Supawan","N1 9DT","Supawan Thai, London: ‘Takes your mouth on the ride of its life’ – restaurant review<br>https://www.theguardian.com/food/2023/jan/29/supawan-thai-london-takes-your-mouth-on-the-ride-of-its-life-restaurant-review"
"Climat, Manchester: ‘You’ve come to the right place’ – restaurant review","53.483375,-2.247865","Climat","M3 2JA","Climat, Manchester: ‘You’ve come to the right place’ – restaurant review<br>https://www.theguardian.com/food/2023/jan/22/climat-manchester-youve-come-to-the-right-place-restaurant-review"
"Bouchon Racine, London: ‘I am a huge, dribbling admirer’ – restaurant review","51.520043,-0.102532","Bouchon Racine","EC1M 6BP","Bouchon Racine, London: ‘I am a huge, dribbling admirer’ – restaurant review<br>https://www.theguardian.com/food/2023/jan/15/bouchon-racine-london-i-am-a-huge-dribbling-admirer-restaurant-review"
"Mandarin Kitchen, London: ‘Seriously good’ – restaurant review","51.511126,-0.186989","Mandarin Kitchen","W2 3RX","Mandarin Kitchen, London: ‘Seriously good’ – restaurant review<br>https://www.theguardian.com/food/2023/jan/08/mandarin-kitchen-london-seriously-good-restaurant-review"
"The Barley Mow, London: ‘Infuriatingly nice’ – restaurant review","51.513021,-0.151032","The Barley Mow","W1K 6JG","The Barley Mow, London: ‘Infuriatingly nice’ – restaurant review<br>https://www.theguardian.com/food/2022/dec/18/the-barley-mow-london-infuriatingly-nice-restaurant-review"
"Tsiakkos & Charcoal, London: ‘It’s just so damn lovely’ – restaurant review","51.523841,-0.19398","Tsiakkos & Charcoal","W9 2DU","Tsiakkos & Charcoal, London: ‘It’s just so damn lovely’ – restaurant review<br>https://www.theguardian.com/food/2022/dec/11/jay-rayner-restaurant-review-tsiakkos-and-charcoal-its-just-so-damn-lovely"
"The Black Bull Inn, Sedbergh: ‘We were properly fed and watered’ – restaurant review","54.323602,-2.527492","The Black Bull Inn","LA10 5BL","The Black Bull Inn, Sedbergh: ‘We were properly fed and watered’ – restaurant review<br>https://www.theguardian.com/food/2022/nov/27/the-black-bull-inn-sedburgh-restaurant-review"
"Leftfield, Edinburgh: ‘Just the place for a dark night’ – restaurant review","55.93968,-3.204169","Leftfield","EH10 4HP","Leftfield, Edinburgh: ‘Just the place for a dark night’ – restaurant review<br>https://www.theguardian.com/food/2022/nov/20/leftfield-edinburgh-just-the-place-for-a-dark-night-restaurant-review"
"Restaurant Elis: ‘It was only fine, it wasn’t awful’ – review","51.530481,-0.055715","Restaurant Elis","E2 9NF","Restaurant Elis: ‘It was only fine, it wasn’t awful’ – review<br>https://www.theguardian.com/food/2022/nov/13/restaurant-elis-it-was-only-fine-it-wasnt-awful-review"
"Roasta Preston, Preston: ‘Takes you far beyond comfort food’ – restaurant review","53.768437,-2.710413","Roasta Preston","PR1 7EP","Roasta Preston, Preston: ‘Takes you far beyond comfort food’ – restaurant review<br>https://www.theguardian.com/food/2022/nov/06/jay-rayner-restaurant-review-roasta-preston-takes-you-far-beyond-comfort-food"
"Jinseon Korean BBQ Restaurant, Coventry: ‘Unalloyed enthusiasm’ – restaurant review","52.40976,-1.508001","Jinseon Korean BBQ Restaurant","CV1 5SQ","Jinseon Korean BBQ Restaurant, Coventry: ‘Unalloyed enthusiasm’ – restaurant review<br>https://www.theguardian.com/food/2022/oct/30/jay-rayner-restaurant-review-jimseon-korean-bbq-coventry-legendary-glowing-coals"
"Moonfish Café, Aberdeen: ‘A crowd-pleasing menu’ – restaurant review","57.147028,-2.09885","Moonfish Café","AB10 1HP","Moonfish Café, Aberdeen: ‘A crowd-pleasing menu’ – restaurant review<br>https://www.theguardian.com/food/2022/oct/23/moonfish-cafe-aberdeen-a-crowd-pleasing-menu-restaurant-review"
"Kushi-Ya, Nottingham: ‘A blissfully good place’ – restaurant review","52.954079,-1.15288","Kushi-Ya","NG1 6JE","Kushi-Ya, Nottingham: ‘A blissfully good place’ – restaurant review<br>https://www.theguardian.com/food/2022/oct/16/jay-rayner-restaurant-revie-kushi-ya-nottingham-a-blissfully-good-place"
"The Rose, Deal: ‘A gentle parade of impressive cooking’ – restaurant review","51.225095,1.402508","The Rose","CT14 6ED","The Rose, Deal: ‘A gentle parade of impressive cooking’ – restaurant review<br>https://www.theguardian.com/food/2022/oct/09/jay-rayner-restaurant-review-the-rose-in-deal-a-gentle-parade-of-impressive-cooking"
"Block Soho, London: ‘A dreadfully disappointing, poor-value experience’ – restaurant review","51.514497,-0.133461","Block Soho","W1F 0AZ","Block Soho, London: ‘A dreadfully disappointing, poor-value experience’ – restaurant review<br>https://www.theguardian.com/food/2022/oct/02/jay-rayner-restaurant-review-block-soho-a-dreadfully-disappointing-experience"
"Lebnani, Reigate: ‘Small but perfectly judged’ – restaurant review","51.238,-0.205071","Lebnani","RH2 0AA","Lebnani, Reigate: ‘Small but perfectly judged’ – restaurant review<br>https://www.theguardian.com/food/2022/sep/25/jay-rayner-restaurant-review-lebnani-reigate-small-but-perfectly-judged"
"L’Hexagone, Norwich: ‘Simple things done very well’ – restaurant review","52.629666,1.291786","L’Hexagone","NR2 1EL","L’Hexagone, Norwich: ‘Simple things done very well’ – restaurant review<br>https://www.theguardian.com/food/2022/sep/18/jay-rayner-restaurant-review-l-hexagone-norwich-simple-things-done-very-well"
"Etles Uyghur, London: ‘You’ll be well fed, and learn a little along the way’ – restaurant review","51.562208,-0.197067","Etles Uyghur Restaurant","NW2 2HY","Etles Uyghur, London: ‘You’ll be well fed, and learn a little along the way’ – restaurant review<br>https://www.theguardian.com/food/2022/sep/11/jay-rayner-restaurant-review-etles-uyghur-london-you-will-be-very-well-fed"
"Lerpwl, Liverpool: ‘From the off they are pushing the tasting menus’ – restaurant review","53.399392,-2.991381","Lerpwl","L3 4AD","Lerpwl, Liverpool: ‘From the off they are pushing the tasting menus’ – restaurant review<br>https://www.theguardian.com/food/2022/sep/04/jay-rayner-restaurant-review-lerpwl-liverpool-they-are-pushing-the-tasting-menus"
"The Palmerston, Edinburgh: ‘It’s a great dinner’ – restaurant review","55.94773,-3.215659","The Palmerston","EH12 5AF","The Palmerston, Edinburgh: ‘It’s a great dinner’ – restaurant review<br>https://www.theguardian.com/food/2022/aug/28/jay-rayner-restaurant-review-the-palmerston-edinburgh-its-a-great-dinner"
"Walter’s, London: ‘So many reasons to go back’ – restaurant review","51.435893,-0.090623","Walter’s","SE21 8BW","Walter’s, London: ‘So many reasons to go back’ – restaurant review<br>https://www.theguardian.com/food/2022/aug/21/walters-london-so-many-reasons-to-go-back-restaurant-review"
"Fallow, Haymarket: ‘Some of the best food I’ve tried in London’ – restaurant review","51.509096,-0.133134","Fallow","SW1Y 4AH","Fallow, Haymarket: ‘Some of the best food I’ve tried in London’ – restaurant review<br>https://www.theguardian.com/food/2022/aug/14/jay-rayner-restaurant-review-fallow-london-some-of-the-best-food-in-the-capital"
"Sohaila, London: ‘It’s charming, the food is great’ – restaurant review","51.522489,-0.078241","Sohaila","E1 6PJ","Sohaila, London: ‘It’s charming, the food is great’ – restaurant review<br>https://www.theguardian.com/food/2022/aug/07/jay-rayner-restaurant-review-sohalla-london-its-charming-and-the-food-is-great"
"Gigi Gao’s Favourite Authentic Chinese, Swansea: ‘A fabulous creation’ – restaurant review","51.615939,-3.940286","Gigi Gao’s Favourite Authentic Chinese","SA1 3XA","Gigi Gao’s Favourite Authentic Chinese, Swansea: ‘A fabulous creation’ – restaurant review<br>https://www.theguardian.com/food/2022/jul/31/jay-rayner-restaurant-review-gigi-gao-swansea-a-fabulous-creation"
"Harbour House, Bristol: ‘Just a delightful place to be’ – restaurant review","51.449023,-2.593993","Harbour House","BS1 4RB","Harbour House, Bristol: ‘Just a delightful place to be’ – restaurant review<br>https://www.theguardian.com/food/2022/jul/24/jay-rayner-restaurant-review-harbour-house-bristol-just-a-delightful-place-to-be"
"Il Borro, London: ‘The music was bad, the pasta dismal’ – restaurant review","51.508454,-0.143259","Il Borro","W1J 8DY","Il Borro, London: ‘The music was bad, the pasta dismal’ – restaurant review<br>https://www.theguardian.com/food/2022/jul/17/jay-rayner-restaurant-review-il-borro-london-the-music-was-bad-the-pasta-dismal"
"Augustus, Taunton: ‘A classy bistro that will look after you’ – restaurant review","51.016942,-3.101878","Augustus","TA1 1JR","Augustus, Taunton: ‘A classy bistro that will look after you’ – restaurant review<br>https://www.theguardian.com/food/2022/jul/10/augustus-taunton-a-classy-bistro-that-will-look-after-you-restaurant-review"
"Sargasso, Margate: ‘Exquisitely good taste’ – restaurant review","51.391226,1.378897","Sargasso","CT9 1AP","Sargasso, Margate: ‘Exquisitely good taste’ – restaurant review<br>https://www.theguardian.com/food/2022/jun/26/jay-rayner-restaurant-review-sargazzo-margate-exquisitely-good-taste"
"Ka Pao, Edinburgh: ‘It’s bold and exciting’ – restaurant review","55.954829,-3.188432","Ka Pao","EH1 3AE","Ka Pao, Edinburgh: ‘It’s bold and exciting’ – restaurant review<br>https://www.theguardian.com/food/2022/jun/12/jay-rayner-restaurant-review-bold-and-exciting-dishes-at-ka-pao-edinburgh"
"Toklas, London: ‘Serves fabulous chips’ – restaurant review","51.512112,-0.1154","Toklas","WC2R 2ND","Toklas, London: ‘Serves fabulous chips’ – restaurant review<br>https://www.theguardian.com/food/2022/may/29/jay-rayner-restaurant-review-toklas-london-serves-the-most-fabulous-chips"
"Les 2 Garçons, London: ‘Designed specifically to be your comfort zone’ – restaurant review","51.577293,-0.123384","Les 2 Garçons","N8 9QH","Les 2 Garçons, London: ‘Designed specifically to be your comfort zone’ – restaurant review<br>https://www.theguardian.com/food/2022/may/22/jay-rayner-restaurant-review-les-2-garcons-london-designed-for-your-comfort-zone"
"Acme Fire Cult, London: ‘A really engaging dinner’ – restaurant review","51.547128,-0.075008","Acme Fire Cult","E8 3DP","Acme Fire Cult, London: ‘A really engaging dinner’ – restaurant review<br>https://www.theguardian.com/food/2022/may/15/jay-rayner-restaurant-review-acme-fire-cult-london-far-more-than-just-dude-food"
"NoMad London: ‘What price, beautiful food?’: restaurant review","51.513702,-0.122652","NoMad London","WC2E 7AW","NoMad London: ‘What price, beautiful food?’: restaurant review<br>https://www.theguardian.com/food/2022/may/08/nomad-london-what-price-beautiful-food-restaurant-review"
"The Alan, Manchester: ‘A truly delightful menu’ – restaurant review","53.478192,-2.241778","The Alan","M1 4LG","The Alan, Manchester: ‘A truly delightful menu’ – restaurant review<br>https://www.theguardian.com/food/2022/may/01/jay-rayner-restaurant-review-the-alan-manchester-a-truly-delightful-menu"
"Yikouchi at Chancer’s Café: ‘An utter joy’ – restaurant review","52.426797,-1.921821","Yikouchi at Chancer’s Café","B30 2PH","Yikouchi at Chancer’s Café: ‘An utter joy’ – restaurant review<br>https://www.theguardian.com/food/2022/apr/24/yikouchi-at-chancers-cafe-birmingham-an-utter-joy-restaurant-review"
"Richoux, London: ‘An instant classic’ – restaurant review","51.507954,-0.139475","Richoux","W1J 9EJ","Richoux, London: ‘An instant classic’ – restaurant review<br>https://www.theguardian.com/food/2022/apr/17/jay-rayner-restaurant-review-richoux-london-an-instant-classic-on-piccadilly"
"Five Little Pigs, Wallingford: ‘The cooking really is up to scratch’ – restaurant review","51.597581,-1.125018","Five Little Pigs","OX10 0ET","Five Little Pigs, Wallingford: ‘The cooking really is up to scratch’ – restaurant review<br>https://www.theguardian.com/food/2022/apr/10/five-little-pigs-wallingford-the-cooking-really-is-up-to-scratch-restaurant-review"
"Claw & Hammer, London: ‘The seafood is terrific’ – restaurant review","51.512324,-0.075366","Claw & Hammer","EC3N 1DD","Claw & Hammer, London: ‘The seafood is terrific’ – restaurant review<br>https://www.theguardian.com/food/2022/apr/03/jay-rayner-restaurant-review-claw-and-hammer-london-the-seafood-is-terrific"
"Queens Wine Bar, Liverpool: ‘Shows you a very nice time indeed’ – restaurant review ","53.406718,-2.990197","Queens Wine Bar and Bistro","L2 4TX","Queens Wine Bar, Liverpool: ‘Shows you a very nice time indeed’ – restaurant review <br>https://www.theguardian.com/food/2022/mar/27/jay-rayner-restaurant-review-queens-wine-bar-liverpool-a-very-nice-time-indeed"
"Double Dragon, London: ‘A great night out’ – restaurant review","51.526685,-0.108524","Double Dragon","EC1R 4QY","Double Dragon, London: ‘A great night out’ – restaurant review<br>https://www.theguardian.com/food/2022/mar/13/jay-rayner-restaurant-review-double-dragon-london-just-a-great-night-out"
"The Heathcock, Cardiff: ‘Identifies the good things, does them well’ – restaurant review","51.496495,-3.22263","The Heathcock","CF5 2EN","The Heathcock, Cardiff: ‘Identifies the good things, does them well’ – restaurant review<br>https://www.theguardian.com/food/2022/mar/06/jay-rayner-restaurant-review-the-heathcock-cardiff-does-the-good-things-well"
"Fletchers at Grantley Hall, Ripon: ‘Confused and asphyxiatingly expensive’ – restaurant review","54.118805,-1.6316","Fletchers at Grantley Hall","HG4 3ET","Fletchers at Grantley Hall, Ripon: ‘Confused and asphyxiatingly expensive’ – restaurant review<br>https://www.theguardian.com/food/2022/feb/27/jay-rayner-restaurant-review-fletchers-at-grantley-hall-rippon-confused-and-expensive"
"Beckford Bottle Shop, Bath: ‘Somewhere to quiet all the bad thoughts’ – restaurant review","51.386319,-2.362029","Beckford Bottle Shop","BA1 2QP","Beckford Bottle Shop, Bath: ‘Somewhere to quiet all the bad thoughts’ – restaurant review<br>https://www.theguardian.com/food/2022/feb/20/jay-rayner-restaurant-review-beckford-bottle-shop-bath-somewhere-to-quiet-all-the-bad-thoughts-restaurant-review"
"Sugarcane London: ‘This is all comfort food’ – restaurant review","51.470529,-0.138438","Sugarcane London","SW8 4PA","Sugarcane London: ‘This is all comfort food’ – restaurant review<br>https://www.theguardian.com/food/2022/feb/13/sugarcane-london-this-is-all-comfort-food-restaurant-review"
"Food House, London: ‘Full on, in a very good way’ – restaurant review","51.511994,-0.130058","Food House","W1D 5QH","Food House, London: ‘Full on, in a very good way’ – restaurant review<br>https://www.theguardian.com/food/2022/feb/06/food-house-london-restaurant-review-jay-rayner"
"Juke & Loe, Sheffield: ‘Bold cooking designed to satisfy’ – restaurant review","53.368021,-1.500471","Juke and Loe","S11 8PT","Juke & Loe, Sheffield: ‘Bold cooking designed to satisfy’ – restaurant review<br>https://www.theguardian.com/food/2022/jan/30/juke-and-low-sheffield-bold-cooking-designed-to-satisfy-restaurant-review"
"Bayside Social, Worthing: ‘Riotous colour and wake-me-up flavours’ – restaurant review","50.810999,-0.362737","Bayside Social","BN11 2FG","Bayside Social, Worthing: ‘Riotous colour and wake-me-up flavours’ – restaurant review<br>https://www.theguardian.com/food/2022/jan/23/jay-rayner-restaurant-review-bayside-social-worthing-riotous-wake-me-up-flavours"
"Zahter, London: ‘The best baklava I have ever eaten’ – restaurant review","51.513788,-0.13879","Zahter","W1F 7PS","Zahter, London: ‘The best baklava I have ever eaten’ – restaurant review<br>https://www.theguardian.com/food/2022/jan/16/jay-rayner-restaurant-review-zahter-london-the-best-baklava-i-have-ever-eaten"
"Manteca, London: ‘Genuine verve and originality’ – restaurant review","51.523993,-0.080655","Manteca","EC2A 3PT","Manteca, London: ‘Genuine verve and originality’ – restaurant review<br>https://www.theguardian.com/food/2022/jan/09/manteca-london-jay-rayner-restaurant-review"
"Sarap Filipino Bistro: ‘Many of the dishes are real showstoppers’ - restaurant review","51.511229,-0.139518","Sarap Filipino Bistro","W1B 4BX","Sarap Filipino Bistro: ‘Many of the dishes are real showstoppers’ - restaurant review<br>https://www.theguardian.com/food/2022/jan/02/sarap-filipino-bistro-many-of-the-dishes-are-real-showstoppers---restaurant-review"
"Masalchi by Atul Kochhar: ‘Come here for a bit of everything’ – restaurant review","51.557531,-0.281544","Masalchi by Atul Kochhar","HA9 0HP","Masalchi by Atul Kochhar: ‘Come here for a bit of everything’ – restaurant review<br>https://www.theguardian.com/food/2021/dec/19/jay-rayner-restaurant-review-masalchi-by-atul-kochhar-come-here-for-a-bit-of-everything"
"The Black Friar, Salford: ‘An ambitious pub that’s evolving quickly’ – restaurant review","53.487116,-2.25447","The Black Friar","M3 7DB","The Black Friar, Salford: ‘An ambitious pub that’s evolving quickly’ – restaurant review<br>https://www.theguardian.com/food/2021/dec/12/the-black-friar-salford-an-ambitious-pub-thats-evolving-quickly-restaurant-review"
"Unalome by Graeme Cheevers, Glasgow: ‘Self-consciously ambitious’ – restaurant review","55.865804,-4.2836","Unalome by Graeme Cheevers","G3 7RZ","Unalome by Graeme Cheevers, Glasgow: ‘Self-consciously ambitious’ – restaurant review<br>https://www.theguardian.com/food/2021/dec/05/jay-rayner-restaurant-review-unalome-by-graeme-cheevers-self-consciously-ambitious"
"Schnitzel Forever, London: ‘A total crowd-pleaser, without crowds’ – restaurant review","51.561941,-0.079548","Schnitzel Forever","N16 0UD","Schnitzel Forever, London: ‘A total crowd-pleaser, without crowds’ – restaurant review<br>https://www.theguardian.com/food/2021/nov/28/jay-rayner-restaurant-review-schnitzel-forever-a-crowd-pleaser-without-crowds"
"Brook’s, West Yorkshire: ‘A startlingly good modern brasserie’ – restaurant review","53.702222,-1.779357","Brook’s","HD6 1RW","Brook’s, West Yorkshire: ‘A startlingly good modern brasserie’ – restaurant review<br>https://www.theguardian.com/food/2021/nov/21/jay-rayner-restaurant-review-brooks-west-yorkshire-startlingly-good-modern-brasserie"
"Brutto, London: ‘The exceedingly good Italian we didn’t know we needed’ - restaurant review","51.519657,-0.102519","Brutto","EC1M 6BN","Brutto, London: ‘The exceedingly good Italian we didn’t know we needed’ - restaurant review<br>https://www.theguardian.com/food/2021/nov/14/jay-rayner-restaurant-review-brutto-london-exceedingly-good-italian-we-did-not-know-we-needed"
"L’Artisan, Cheltenham: ‘They know what they are doing and they do it extremely well’ – restaurant review","51.900648,-2.077165","L’Artisan","GL50 3NX","L’Artisan, Cheltenham: ‘They know what they are doing and they do it extremely well’ – restaurant review<br>https://www.theguardian.com/food/2021/nov/07/jay-rayner-restaurant-review-lartisan-cheltenham-a-love-letter-from-the-mid-80s"
"The Seafood Bar, London: ‘The platters for one are enough to feed two’ – restaurant review","51.514003,-0.133118","The Seafood Bar","W1D 3SH","The Seafood Bar, London: ‘The platters for one are enough to feed two’ – restaurant review<br>https://www.theguardian.com/food/2021/oct/31/jay-rayner-restaurant-review-the-seafood-bar-london-do-come-for-the-huge-platters"
"Kebab Kid, London: ‘Take-away as a cult’ – restaurant review","51.472344,-0.203478","Kebab Kid","SW6 4LU","Kebab Kid, London: ‘Take-away as a cult’ – restaurant review<br>https://www.theguardian.com/food/2021/oct/17/jay-rayner-restaurant-review-kebab-kid-london-take-away-as-a-cult-nusr-et-steakhouse"
"Fadiga, London: ‘The pasta is bloody lovely’ – restaurant review","51.514806,-0.136111","Fadiga","W1F 8TB","Fadiga, London: ‘The pasta is bloody lovely’ – restaurant review<br>https://www.theguardian.com/food/2021/oct/10/jay-rayner-restaurant-revie-fadiga-london-the-pasta-is-bloody-lovely"
"The Wigmore, London: ‘The best cheese toastie in town’ – restaurant review","51.517573,-0.142701","The Wigmore","W1B 3DE","The Wigmore, London: ‘The best cheese toastie in town’ – restaurant review<br>https://www.theguardian.com/food/2021/oct/03/jay-rayner-restaurant-review-the-wigmore-london-the-best-cheese-toastie-in-town"
"Erst, Manchester: ‘One of the best meals of the year’ – restaurant review","53.484492,-2.22748","Erst","M4 6HS","Erst, Manchester: ‘One of the best meals of the year’ – restaurant review<br>https://www.theguardian.com/food/2021/sep/26/jay-rayner-restaurant-review-erst-manchester-one-of-the-best-meals-of-the-year"
"Tofu Vegan, London: ‘Bring on the big hitters’ – restaurant review","51.537987,-0.102893","Tofu Vegan","N1 1QN","Tofu Vegan, London: ‘Bring on the big hitters’ – restaurant review<br>https://www.theguardian.com/food/2021/sep/19/tofu-vegan-london-bring-on-the-big-hitters-restaurant-review"
"The Pigs, Norfolk: ‘Lives up to its name’ – restaurant review","52.865888,1.115692","The Pigs","NR24 2RL","The Pigs, Norfolk: ‘Lives up to its name’ – restaurant review<br>https://www.theguardian.com/food/2021/sep/12/jay-rayner-restaurant-review-the-pigs-norfolk-lives-up-to-its-name"
"Mangal 2, London: ‘It’s brave and compelling and properly delicious’ – restaurant review","51.550983,-0.074831","Mangal 2","N16 7XN","Mangal 2, London: ‘It’s brave and compelling and properly delicious’ – restaurant review<br>https://www.theguardian.com/food/2021/sep/05/jay-rayner-restaurant-review-mangal-2-london-brave-and-compelling-and-delicious"
"The GPO, Liverpool: ‘They’re trying to work all the angles’ – restaurant review","53.406773,-2.985747","The GPO","L1 6DA","The GPO, Liverpool: ‘They’re trying to work all the angles’ – restaurant review<br>https://www.theguardian.com/food/2021/aug/29/jay-rayner-restaurant-review-the-gpo-liverpool-could-be-first-class-when-its-sorted"
"Kurisu Omakase at Ichiban Sushi, London: ‘It is both dinner and theatre’ – restaurant review","51.461249,-0.111518","Kurisu Omakase at Ichiban Sushi","SW9 8PY","Kurisu Omakase at Ichiban Sushi, London: ‘It is both dinner and theatre’ – restaurant review<br>https://www.theguardian.com/food/2021/aug/22/kurisu-omakase-at-ichiban-sushi-london-it-is-both-dinner-and-theatre-restaurant-review"
"The Polo Lounge at the Dorchester Hotel: ‘Dismal food at inexplicable prices’ - restaurant review","51.507404,-0.152495","53 Park Lane","W1K 1QA","The Polo Lounge at the Dorchester Hotel: ‘Dismal food at inexplicable prices’ - restaurant review<br>https://www.theguardian.com/food/2021/aug/15/the-polo-lounge-at-the-dorchester-hotel-dismal-food-at-eye-popping-prices-restaurant-review"
"Burnt Orange, Brighton: ‘Delivers on its smoky promise’ – restaurant review","50.821362,-0.142961","Burnt Orange","BN1 1AL","Burnt Orange, Brighton: ‘Delivers on its smoky promise’ – restaurant review<br>https://www.theguardian.com/food/2021/aug/08/jay-rayner-restaurant-review-burnt-orange-in-brighton-delivers-on-its-smoky-promise"
"The Bradley Hare, Wiltshire: ‘The meat is impeccable’: restaurant review","51.148931,-2.285338","The Bradley Hare","BA12 7HW","The Bradley Hare, Wiltshire: ‘The meat is impeccable’: restaurant review<br>https://www.theguardian.com/food/2021/aug/01/jay-rayner-restaurant-review-the-bradley-hare-wiltshire-the-meat-is-impeccable"
"Sonny Stores, Bristol: ‘They get things absolutely right’ – restaurant review","51.443852,-2.610313","Sonny Stores","BS3 1QS","Sonny Stores, Bristol: ‘They get things absolutely right’ – restaurant review<br>https://www.theguardian.com/food/2021/jul/25/jay-rayner-restaurant-review-sonny-stores-bristol-they-get-things-absolutely-right"
"The Double Red Duke, Oxfordshire: ‘It’s a class act’ – restaurant review","51.716659,-1.589473","The Double Red Duke","OX18 2RB","The Double Red Duke, Oxfordshire: ‘It’s a class act’ – restaurant review<br>https://www.theguardian.com/food/2021/jul/18/jay-rayner-restaurant-review-the-double-red-duke-oxfordshire-it-is-a-class-act"
"Pho Cue, Manchester: ‘Everything it should be’ – restaurant review","53.478211,-2.240405","Pho Cue","M1 4FH","Pho Cue, Manchester: ‘Everything it should be’ – restaurant review<br>https://www.theguardian.com/food/2021/jul/11/jay-rayner-restaurant-review-pho-cue-manchester-a-vivacious-vietnamese-tribute"
"Humble Chicken, London: ‘It’s a huge amount of fun’ – restaurant review","51.513885,-0.131912","Humble Chicken","W1D 4SJ","Humble Chicken, London: ‘It’s a huge amount of fun’ – restaurant review<br>https://www.theguardian.com/food/2021/jul/04/jay-rayner-restaurant-review-humble-chicken-london-it-is-a-huge-amount-of-fun"
"Sussex Bar & Restaurant, London: ‘There’s an awful lot to like about it’ – restaurant review","51.514359,-0.132267","Sussex Bar & Restaurant","W1D 3JW","Sussex Bar & Restaurant, London: ‘There’s an awful lot to like about it’ – restaurant review<br>https://www.theguardian.com/food/2021/jun/27/jay-rayner-restaurant-review-theres-an-awful-lot-to-like-about-the-sussex-in-london"
"Imad’s Syrian Kitchen, London: ‘Represents all the good things’ – restaurant review","51.512458,-0.138704","Imad’s Syrian","W1B 5PW","Imad’s Syrian Kitchen, London: ‘Represents all the good things’ – restaurant review<br>https://www.theguardian.com/food/2021/jun/20/jay-rayner-restaurant-review-imads-syrian-kitchen-represents-all-the-good-things"
"Casa Madeira, London: ‘I love the Portuguese repertoire’ – restaurant review","51.489218,-0.122726","Casa Madeira","SE1 7TL","Casa Madeira, London: ‘I love the Portuguese repertoire’ – restaurant review<br>https://www.theguardian.com/food/2021/may/23/jay-rayner-restaurant-review-casa-madeira-london-i-love-the-portuguese-repertoire"
"Only Food and Courses, London: ‘Deserves to be taken seriously’ – restaurant review","51.46332,-0.111692","Only Food and Courses","SW9 8PQ","Only Food and Courses, London: ‘Deserves to be taken seriously’ – restaurant review<br>https://www.theguardian.com/food/2021/may/16/only-food-and-courses-london-deserves-to-be-taken-seriously-restaurant-review"
"Mr Ji: ‘Bright lights and sparkly thrills in the heart of Soho’ – restaurant review","51.512653,-0.132985","Mr Ji","W1D 4UN","Mr Ji: ‘Bright lights and sparkly thrills in the heart of Soho’ – restaurant review<br>https://www.theguardian.com/food/2021/may/09/mr-ji-bright-lights-and-sparkly-thrills-in-the-heart-of-soho-restaurant-review"
"Bentley’s Oyster Bar & Grill, London: ‘The kind of place I daydreamed about’ – restaurant review","51.5095,-0.137769","Bentley’s Oyster Bar & Grill","W1B 4DG","Bentley’s Oyster Bar & Grill, London: ‘The kind of place I daydreamed about’ – restaurant review<br>https://www.theguardian.com/food/2021/may/02/jay-rayner-on-restaurants-bentleys-oyster-bar-i-dreamt-about-this-in-lockdown"
"Brat at Climpson’s Arch, London: ‘I love the rackety, freestyle vibe’: restaurant review","51.539435,-0.058794","Brat at Climpson’s Arch","E8 3SB","Brat at Climpson’s Arch, London: ‘I love the rackety, freestyle vibe’: restaurant review<br>https://www.theguardian.com/food/2021/apr/25/jay-rayner-restaurant-review-i-love-the-freestyle-vibe-at-brat-at-climpsons-arch"
"The Garden at Corinthia, London: ‘The food is good, the pricing brutal’ – restaurant review","51.506253,-0.125307","The Garden at Corinthia","SW1A 2BD","The Garden at Corinthia, London: ‘The food is good, the pricing brutal’ – restaurant review<br>https://www.theguardian.com/food/2021/jan/10/the-garden-at-corinthia-london-the-food-is-good-the-pricing-brutal-restaurant-review"
"Heddon Yokocho: ‘A deeper dive into ramen culture’ – restaurant review","51.511055,-0.139421","8 Heddon Street","W1B 4BU","Heddon Yokocho: ‘A deeper dive into ramen culture’ – restaurant review<br>https://www.theguardian.com/food/2020/dec/20/jay-rayner-restaurant-review-heddon-yokocho-ramen-london"
"The Tramshed Project, London: ‘It's so now’: restaurant review","51.525854,-0.081631","The Tramshed Project","EC2A 3LX","The Tramshed Project, London: ‘It's so now’: restaurant review<br>https://www.theguardian.com/food/2020/nov/22/jay-rayner-restaurant-review-tramshed-project-london-it-is-so-now"
"Chishuru, London: ‘Show it some love’ – restaurant review","51.462025,-0.113289","Chishuru","SW9 8LB","Chishuru, London: ‘Show it some love’ – restaurant review<br>https://www.theguardian.com/food/2020/nov/15/jay-rayner-restaurant-review-chisury-brixton-show-this-new-west-african-some-love"
"Townsend, London: ‘A place to keep the world at bay’ – restaurant review","51.51601,-0.070426","Townsend at the Whitechapel Gallery","E1 7QX","Townsend, London: ‘A place to keep the world at bay’ – restaurant review<br>https://www.theguardian.com/food/2020/nov/01/jay-rayner-restaurants-townsend-in-whitechapel-will-take-your-mind-off-things"
"Land, Birmingham: ‘Vegan cookery to file under thrilling’ – restaurant review","52.481901,-1.897143","Land","B2 5HU","Land, Birmingham: ‘Vegan cookery to file under thrilling’ – restaurant review<br>https://www.theguardian.com/food/2020/oct/25/jay-rayner-restaurant-review-land-in-birmingham-serves-thrilling-vegan-food"
"JAE at Untitled, London: ‘Seriously punchy Korean cooking’ – restaurant review","51.545214,-0.075509","JAE at Untitled","E8 4AH","JAE at Untitled, London: ‘Seriously punchy Korean cooking’ – restaurant review<br>https://www.theguardian.com/food/2020/oct/18/jay-rayner-restaurant-review-jae-at-untitled-london-seriously-punchy-korean-cooking"
"The Windmill, London: ‘You’ll be rewarded with terrific pie’ – restaurant review","51.512387,-0.142292","The Windmill","W1S 2AZ","The Windmill, London: ‘You’ll be rewarded with terrific pie’ – restaurant review<br>https://www.theguardian.com/food/2020/oct/11/the-windmill-london-you-will-be-rewarded-with-terrific-pie-restaurant-review"
"Wen’s, Leeds: ‘Dumplings in gossamer skins’ – restaurant review","53.801723,-1.537792","Wen’s","LS2 7PN","Wen’s, Leeds: ‘Dumplings in gossamer skins’ – restaurant review<br>https://www.theguardian.com/food/2020/sep/27/jay-rayner-restaurant-review-dumplings-in-gossamer-skins"
"Lyon’s Seafood and Wine Bar, London: ‘An intriguing thing’ – restaurant review","51.58071,-0.125033","Lyon’s Seafood and Wine Bar","N8 8TE","Lyon’s Seafood and Wine Bar, London: ‘An intriguing thing’ – restaurant review<br>https://www.theguardian.com/food/2020/sep/20/jay-rayner-restaurant-review-lyons-seafood-and-wine-bar-london-an-intriguing-thing"
"Delhi House Cafe, Manchester: ‘There is a lot to enjoy here’ – restaurant review","53.48503,-2.243007","Delhi House Cafe","M4 3TR","Delhi House Cafe, Manchester: ‘There is a lot to enjoy here’ – restaurant review<br>https://www.theguardian.com/food/2020/sep/13/jay-rayner-restaurant-review-delhi-house-cafe-manchester-there-is-a-lot-to-enjoy"
"Smokestak, London: ‘one glorious, considered pose’ – restaurant review","51.523696,-0.073419","Smokestak","E1 6LB","Smokestak, London: ‘one glorious, considered pose’ – restaurant review<br>https://www.theguardian.com/food/2020/sep/06/jay-rayner-restaurant-review-smokestak-london-one-glorious-considered-pose"
"The Royal, St Leonards: ‘Extremely encouraging’ – restaurant review","50.85545,0.562341","The Royal","TN37 6HP","The Royal, St Leonards: ‘Extremely encouraging’ – restaurant review<br>https://www.theguardian.com/food/2020/aug/30/jay-rayner-the-royal-st-leonards-extremely-encouraging-restaurant-review"
"Lahpet, London: ‘Dishes that demand your attention’ – restaurant review","51.52392,-0.073464","Lahpet","E1 6JW","Lahpet, London: ‘Dishes that demand your attention’ – restaurant review<br>https://www.theguardian.com/food/2020/aug/23/jay-rayner-restaurant-review-lahpet-london-visit-for-superb-burmese-food"
"Turnips, London: ‘A clever response to challenging times’ – restaurant review","51.50548,-0.090756","Turnips","SE1 9AH","Turnips, London: ‘A clever response to challenging times’ – restaurant review<br>https://www.theguardian.com/food/2020/aug/16/turnips-london-a-clever-response-to-challenging-times-restaurant-review"
"Kolamba, London: ‘A lovely dinner in a calming space’ – restaurant review","51.513018,-0.139586","Kolamba","W1B 5QA","Kolamba, London: ‘A lovely dinner in a calming space’ – restaurant review<br>https://www.theguardian.com/food/2020/aug/09/jay-rayner-restaurant-review-kolamba-london-a-lovely-dinner-in-a-calming-space"
"Street Urchin, Manchester: ‘A place where good things happen’ – restaurant review","53.482915,-2.229777","Street Urchin","M4 5BG","Street Urchin, Manchester: ‘A place where good things happen’ – restaurant review<br>https://www.theguardian.com/food/2020/aug/02/street-urchin-manchester-a-place-where-good-things-happen-restaurant-review"
"Waterside Bistro, Shipley: ‘a much missed old friend’ – restaurant review","53.835483,-1.776728","Waterside Bistro and Bar","BD17 7DW","Waterside Bistro, Shipley: ‘a much missed old friend’ – restaurant review<br>https://www.theguardian.com/food/2020/jul/26/waterside-bistro-shipley-a-much-missed-old-friend-jay-rayner-restaurant-review"
"At last, going out for lunch, in a French place really worth the wait","51.499677,-0.079461","Pique-Nique","SE1 3LD","At last, going out for lunch, in a French place really worth the wait<br>https://www.theguardian.com/food/2020/jul/19/at-last-going-out-for-lunch-at-picque-nique-a-french-place-really-worth-the-wait"
"Flying Frenchman La Canteen, London: 'Order his food if you live nearby' – restaurant review","51.552417,-0.085546","Flying Frenchman La Canteen","N16 9PS","Flying Frenchman La Canteen, London: 'Order his food if you live nearby' – restaurant review<br>https://www.theguardian.com/food/2020/apr/05/flying-frenchman-la-canteen-london-order-his-food-if-you-live-nearby-restaurant-review"
"Farmyard, Norwich: ‘For the most part, it works’ – restaurant review","52.631076,1.289275","Farmyard","NR2 4PF","Farmyard, Norwich: ‘For the most part, it works’ – restaurant review<br>https://www.theguardian.com/food/2020/mar/22/farmyard-norwich-for-the-most-part-it-works-restaurant-review"
"Your Mum’s Kitchen, London: ‘Sweet and beguiling’ – restaurant review","51.545773,-0.179397","Your Mum’s Kitchen","NW6 3HX","Your Mum’s Kitchen, London: ‘Sweet and beguiling’ – restaurant review<br>https://www.theguardian.com/food/2020/mar/08/your-mums-kitchen-london-sweet-beguiling-korean-home-cooking-restaurant-review"
"‘Davies and Brook, London: 'Some show-stopping dishes'","51.512426,-0.147637","Davies and Brook","W1K 4HR","‘Davies and Brook, London: 'Some show-stopping dishes'<br>https://www.theguardian.com/food/2020/mar/01/davies-and-brook-london-some-show-stopping-dishes-restaurant-review"
"Four Seasons, London: ‘An act of solidarity that also gets me roast duck’ – restaurant review","51.511965,-0.131025","Four Seasons","W1D 5PR","Four Seasons, London: ‘An act of solidarity that also gets me roast duck’ – restaurant review<br>https://www.theguardian.com/food/2020/feb/23/four-seasons-london-an-act-of-solidarity-that-also-gets-me-roast-duck"
"The Gallivant, Camber: ‘Unfussy and extremely satisfying cooking’ – restaurant review","50.937074,0.786715","The Gallivant","TN31 7RB","The Gallivant, Camber: ‘Unfussy and extremely satisfying cooking’ – restaurant review<br>https://www.theguardian.com/food/2020/feb/16/the-gallivant-camber-unfussy-and-extremely-satisfying-food-restaurant-review-jay-rayner"
"The Yard by Robin Gill, London: ‘Unappealing, ill-conceived, overpriced’ – restaurant review","51.506477,-0.126364","The Yard by Robin Gill","SW1A 2HN","The Yard by Robin Gill, London: ‘Unappealing, ill-conceived, overpriced’ – restaurant review<br>https://www.theguardian.com/food/2020/feb/02/the-yard-by-robin-gill-london-unappealing-ill-conceived-overpriced-restaurant-review"
"Merienda, Edinburgh: ‘Good in parts’ – restaurant review","55.957289,-3.207566","Merienda","EH3 6TP","Merienda, Edinburgh: ‘Good in parts’ – restaurant review<br>https://www.theguardian.com/food/2020/jan/19/mereienda-edinburgh-good-in-parts-restaurant-review"
"Bistro 46, Newcastle: ‘A small restaurant with heart’ – review","54.991936,-1.609179","Bistro 46","NE2 3DH","Bistro 46, Newcastle: ‘A small restaurant with heart’ – review<br>https://www.theguardian.com/food/2020/jan/12/bistro-46-newcastle-a-small-restaurant-with-heart-game"
"The Lookout, Edinburgh: ‘High altitude dining – and prices – but worth it’","55.95431,-3.185341","The Lookout","EH7 5AA","The Lookout, Edinburgh: ‘High altitude dining – and prices – but worth it’<br>https://www.theguardian.com/food/2020/jan/05/the-lookout-edinburgh-high-altitude-dining-and-prices-but-worth-it-jay-rayner"
"Bubala, London: ‘Exuberantly vegetarian’ – restaurant review","51.517646,-0.074078","Bubala","E1 6BD","Bubala, London: ‘Exuberantly vegetarian’ – restaurant review<br>https://www.theguardian.com/food/2019/dec/29/bubala-london-exuberantly-vegetarian-restaurant-review"
"Persian Cottage, Middlesbrough: ‘A happy choice, a polished gem’ – restaurant review","54.561496,-1.243659","Persian Cottage","TS5 6JQ","Persian Cottage, Middlesbrough: ‘A happy choice, a polished gem’ – restaurant review<br>https://www.theguardian.com/food/2019/dec/22/jay-rayner-persian-cottage-middlesbrough-rice-kebab-grill-lamb-charcoal-aubergine-hummus"
"'It's a focus for the community': Stormzy takes Jay Rayner to his favourite cafe","51.395318,-0.068151","Bluejay Café","SE25 4PP","'It's a focus for the community': Stormzy takes Jay Rayner to his favourite cafe<br>https://www.theguardian.com/food/2019/dec/14/bluejay-cafe-london-norwood-stormzy-jerk-chicken-curry-goat-oxtail-caribbean-food"
"The Creameries, Manchester: ‘Seriously good, thoughtful food’ – restaurant review","53.442721,-2.271837","The Creameries","M21 0SD","The Creameries, Manchester: ‘Seriously good, thoughtful food’ – restaurant review<br>https://www.theguardian.com/food/2019/dec/08/the-creameries-manchester-seriously-good-thoughtful-food-restaurant-review-jay-rayner"
"The Leaping Hare, Suffolk: ‘One of the good ones’ - restaurant review","52.308718,0.878789","The Leaping Hare","IP31 2DW","The Leaping Hare, Suffolk: ‘One of the good ones’ - restaurant review<br>https://www.theguardian.com/food/2019/dec/01/the-leaping-hare-suffolk-it-doesnt-put-a-foot-wrong-restaurant-review"
"Miller & Carter, Liverpool: ‘So how are the steaks? Good’ – restaurant review","53.401195,-2.991829","Miller & Carter","L3 4AF","Miller & Carter, Liverpool: ‘So how are the steaks? Good’ – restaurant review<br>https://www.theguardian.com/food/2019/nov/24/miller-and-carter-liverpool-the-steaks-are-good-restaurant-review"
"Live Seafood, Manchester: ‘A parade of the best and freshest Chinese dishes’ – restaurant review","53.475026,-2.208507","Live Seafood","M11 3WU","Live Seafood, Manchester: ‘A parade of the best and freshest Chinese dishes’ – restaurant review<br>https://www.theguardian.com/food/2019/nov/17/live-seafood-manchester-a-parade-of-the-best-and-freshest-chinese-dishes-restaurant-review"
"Norma, London: ‘A place of joy’ – restaurant review","51.518351,-0.134356","Norma","W1T 2LS","Norma, London: ‘A place of joy’ – restaurant review<br>https://www.theguardian.com/food/2019/nov/10/norma-london-a-place-of-joy-restaurant-review"
"Mikaku, Glasgow: ‘So much more than the sum of its parts’ – restaurant review","55.858642,-4.252657","Mikaku","G1 3EF","Mikaku, Glasgow: ‘So much more than the sum of its parts’ – restaurant review<br>https://www.theguardian.com/food/2019/nov/03/mikaku-glasgow-restaurant-review-so-much-more-than-the-sum-of-its-parts"
"Marmo, Bristol: ‘It just makes me happy’ – restaurant review","51.453555,-2.594309","Marmo","BS1 1RG","Marmo, Bristol: ‘It just makes me happy’ – restaurant review<br>https://www.theguardian.com/food/2019/oct/27/marmo-bristol-it-just-makes-me-happy-restaurant-review"
"Flor, Borough Market, London: ‘I feel like I’ve been at a tasting session’ – restaurant review","51.505476,-0.089963","Flor","SE1 9AL","Flor, Borough Market, London: ‘I feel like I’ve been at a tasting session’ – restaurant review<br>https://www.theguardian.com/food/2019/oct/20/flor-borough-market-london-i-feel-like-ive-been-at-a-tasting-session-restaurant-review"
"The Flint House, Brighton: ‘It’s all about satisfying dishes’ – restaurant review","50.82217,-0.14009","The Flint House","BN1 1GS","The Flint House, Brighton: ‘It’s all about satisfying dishes’ – restaurant review<br>https://www.theguardian.com/food/2019/oct/13/the-flint-house-brighton-its-about-satisfying-dishes-restaurant-review"
"The Humble Bee Café, London: ‘A meal in a very happy place’ – restaurant review","51.517136,-0.042863","The Humble Bee Café. Stepney City Farm","E1 3DG","The Humble Bee Café, London: ‘A meal in a very happy place’ – restaurant review<br>https://www.theguardian.com/food/2019/sep/29/the-humble-bee-cafe-stepney-city-farm-london-a-meal-in-a-very-happy-place-restaurant-review"
"Lagom at Hackney Church Brew Co: ‘Dishes throbbing with flavour’ – restaurant review","51.547321,-0.053339","Lagom at Hackney Church Brew Co","E8 1DU","Lagom at Hackney Church Brew Co: ‘Dishes throbbing with flavour’ – restaurant review<br>https://www.theguardian.com/food/2019/sep/22/lagom-at-hackney-church-brew-co-dishes-throbbing-with-flavour-restaurant-review"
"OKN1, London: ‘These students are our future’ – restaurant review","51.528774,-0.079807","OKN1","N1 6LR","OKN1, London: ‘These students are our future’ – restaurant review<br>https://www.theguardian.com/food/2019/sep/15/okn1-london-these-students-are-our-future-restaurant-review"
"Wun’s Tea Room and Bar, London: ‘I need this in my life‘– restaurant review","51.513683,-0.130508","Wun’s Tea Room and Bar 23 Greek Street","W1D 4DZ","Wun’s Tea Room and Bar, London: ‘I need this in my life‘– restaurant review<br>https://www.theguardian.com/food/2019/sep/08/wuns-tea-room-and-bar-london-i-need-this-in-my-life-restaurant-review"
"Kala, Manchester: ‘Quietly feeds you well’ – restaurant review","53.481135,-2.243661","Kala","M2 4LQ","Kala, Manchester: ‘Quietly feeds you well’ – restaurant review<br>https://www.theguardian.com/food/2019/sep/01/kala-manchester-quietly-feeds-you-well-restaurant-review-jay-rayner"
"Nandine, London: ‘Nourishes the soul’ – restaurant review","51.474062,-0.089681","Nandine","SE5 8TR","Nandine, London: ‘Nourishes the soul’ – restaurant review<br>https://www.theguardian.com/food/2019/aug/11/nandine-london-nourishes-the-soul-restaurant-review"
"Bob’s Lobster, London: ‘Big on flavours and huge on joy’ – restaurant review","51.50462,-0.085867","Bob’s Lobster","SE1 3QX","Bob’s Lobster, London: ‘Big on flavours and huge on joy’ – restaurant review<br>https://www.theguardian.com/food/2019/aug/04/bobs-lobster-london-big-on-flavours-and-huge-on-joy-restaurant-review"
"Heritage, London: Everything is high altitude at this Alpine restaurant, including the prices","51.510927,-0.132465","Heritage","W1D 6DF","Heritage, London: Everything is high altitude at this Alpine restaurant, including the prices<br>https://www.theguardian.com/food/2019/jul/28/heritage-london-everything-is-high-altitude-at-this-alpine-restaurant-including-the-prices"
"Martha’s, London: ‘Nearly very special’ – restaurant review","51.51277,-0.132995","Martha’s","W1D 4JG","Martha’s, London: ‘Nearly very special’ – restaurant review<br>https://www.theguardian.com/food/2019/jul/21/marthas-london-nearly-very-special-restaurant-review"
"Black Axe Mangal, London: ‘Come and let the food rattle your eyeballs’","51.545906,-0.10196","Black Axe Mangal","N1 2UP","Black Axe Mangal, London: ‘Come and let the food rattle your eyeballs’<br>https://www.theguardian.com/food/2019/jul/14/jay-rayner-restaurant-review-black-axe-mangal-lee-tiernan-turkish-british-bone-marrow-st-john-legacy"
"Bugis Street Brasserie, London: ‘Food that keeps going with layers of spice and aromatics’","51.493372,-0.183329","Bugis Street Brasserie","SW7 4LH","Bugis Street Brasserie, London: ‘Food that keeps going with layers of spice and aromatics’<br>https://www.theguardian.com/food/2019/jul/07/jay-rayner-laksa-satay-nasi-goreng-bugis-street-brasserie-review"
"Octopus, Guernsey: ‘Clumsy service detracts from glorious seafood’ – restaurant review","null,null","Octopus","GY1 1AX","Octopus, Guernsey: ‘Clumsy service detracts from glorious seafood’ – restaurant review<br>https://www.theguardian.com/food/2019/jun/23/octopus-guernsey-clumsy-service-detracts-from-fine-seafood-restaurant-review"
"Lucknow 49, London: ‘Occasionally it knocks your socks off’ – restaurant review","51.51234,-0.143879","Lucknow 49","W1S 2PQ","Lucknow 49, London: ‘Occasionally it knocks your socks off’ – restaurant review<br>https://www.theguardian.com/food/2019/jun/16/lucknow-49-london-occasionally-knocks-your-socks-off-restaurant-review"
"Grazing by Mark Greenaway, Edinburgh: ‘Clever but gutsy food' – restaurant review","55.949627,-3.207312","Grazing by Mark Greenaway","EH1 2AB","Grazing by Mark Greenaway, Edinburgh: ‘Clever but gutsy food' – restaurant review<br>https://www.theguardian.com/food/2019/jun/09/grazing-by-mark-greenaway-edinburgh-clever-but-gutsy-food-restaurant-review"
"The Soak, London: ‘Inconsistent doesn’t quite cover it’","51.49625,-0.14485","The Grosvenor Hotel","SW1W 0RP","The Soak, London: ‘Inconsistent doesn’t quite cover it’<br>https://www.theguardian.com/food/2019/jun/02/jay-rayner-the-soak-grosvenor-hotel-inconsistent-doesnt-cover-it-pickle-ferment"
"Ashburn SW7, South Kensington: ‘A dirty stain on its postcode’","51.494743,-0.185267","Ashburn SW7","SW7 4DN","Ashburn SW7, South Kensington: ‘A dirty stain on its postcode’<br>https://www.theguardian.com/food/2019/may/26/jay-rayner-restaurant-review-ashburn-sw7"
"The Coconut Tree, Cheltenham: ‘Both laid-back and completely on point’ – restaurant review","51.906789,-2.077968","The Coconut Tree","GL50 4JA","The Coconut Tree, Cheltenham: ‘Both laid-back and completely on point’ – restaurant review<br>https://www.theguardian.com/food/2019/may/19/coconut-tree-cheltenham-laid-back-and-completely-on-point-restaurant-review"
"Scully, Mayfair: ‘The cooking is vivid, inventive, idiosyncratic’","51.509096,-0.133134","Scully","SW1Y 4AH","Scully, Mayfair: ‘The cooking is vivid, inventive, idiosyncratic’<br>https://www.theguardian.com/food/2019/may/12/jay-rayer-restaurant-review-ramael-scully-mayfair"
"The Spärrows, Manchester: ‘glorious carb-fest’ – restaurant review","53.487763,-2.246034","The Spärrows","M3 1PJ","The Spärrows, Manchester: ‘glorious carb-fest’ – restaurant review<br>https://www.theguardian.com/food/2019/may/05/the-sparrows-manchester-glorious-carb-fest-restaurant-review"
"Pasta Ripiena, Bristol: ‘hilariously messy and brilliantly done’ – restaurant review","51.453695,-2.594701","Pasta Ripiena","BS1 1JX","Pasta Ripiena, Bristol: ‘hilariously messy and brilliantly done’ – restaurant review<br>https://www.theguardian.com/food/2019/apr/28/pasta-ripiena-bristol-hilariously-messy-and-brilliantly-done-restaurant-review"
"Matt Healy X The Foundry, Leeds: ‘Food to swear by’ – restaurant review","53.791235,-1.552373","Matt Healy X The Foundry","LS11 5WH","Matt Healy X The Foundry, Leeds: ‘Food to swear by’ – restaurant review<br>https://www.theguardian.com/food/2019/apr/21/matt-healy-x-the-foundry-leeds-food-to-swear-by-restaurant-review"
"The Fishmarket, Edinburgh: ‘Seafood cookery of the first order’ – restaurant review","55.980654,-3.195634","The Fishmarket","EH6 4LP","The Fishmarket, Edinburgh: ‘Seafood cookery of the first order’ – restaurant review<br>https://www.theguardian.com/food/2019/apr/14/the-fishmarket-edinburgh-seafood-cookery-of-the-first-order-restaurant-review"
"Seveni Bar and Restaurant, London: ‘As boisterous inside as it looks outside’ – review","51.496,-0.111725","Seveni Bar and Restaurant","SE11 6NL","Seveni Bar and Restaurant, London: ‘As boisterous inside as it looks outside’ – review<br>https://www.theguardian.com/food/2019/apr/07/seveni-bar-and-restaurant-as-boisterous-inside-as-it-looks-outside-review-jay-rayner"
"EartH Kitchen, London: ‘A hugely cheering meal’ – restaurant review","51.550893,-0.075412","EartH Kitchen","N16 8BH","EartH Kitchen, London: ‘A hugely cheering meal’ – restaurant review<br>https://www.theguardian.com/food/2019/mar/31/earth-kitchen-london-a-hugely-cheering-meal-restaurant-review"
"Angelina: ‘Curious and thoughtful’ – restaurant review","51.546086,-0.070569","Angelina","E8 3AH","Angelina: ‘Curious and thoughtful’ – restaurant review<br>https://www.theguardian.com/food/2019/mar/24/angelina-london-curious-and-thoughtful-restaurant-review-jay-rayner"
"Pompette, Oxford: ‘Worth saving up for’ – restaurant review","51.778467,-1.267022","Pompette","OX2 7JL","Pompette, Oxford: ‘Worth saving up for’ – restaurant review<br>https://www.theguardian.com/food/2019/mar/17/pompette-oxford-worth-saving-up-for-restaurant-review"
"Passyunk Avenue: ‘A cheese whiz-smeared act of devotion’ – restaurant review","51.522033,-0.140443","Passyunk Avenue","W1T 6NE","Passyunk Avenue: ‘A cheese whiz-smeared act of devotion’ – restaurant review<br>https://www.theguardian.com/food/2019/mar/10/passyunk-avenue-london-a-serious-amount-of-sandwich-for-11-pounds-restaurant-review-jay-rayner"
"Yeni, London: ‘Underwhelming dishes and in-yer-face pricing’ – restaurant review","51.512665,-0.137164","Yeni","W1F 9SH","Yeni, London: ‘Underwhelming dishes and in-yer-face pricing’ – restaurant review<br>https://www.theguardian.com/food/2019/mar/03/yeni-london-underwhelming-dishes-and-in-yer-face-pricing"
"Bia Rebel, Belfast: ‘An £8 bowl of ramen, deserving of poetry’ – restaurant review","54.577423,-5.918755","Bia Rebel","BT7 3GP","Bia Rebel, Belfast: ‘An £8 bowl of ramen, deserving of poetry’ – restaurant review<br>https://www.theguardian.com/food/2019/feb/24/jay-rayner-restaurant-review-bia-rebel-belfast-noodles-ramen"
"Parker’s Tavern, Cambridge: ‘Crowd-pleasing? You won’t want to leave’ – restaurant review","52.202183,0.125376","Parker’s Tavern","CB2 1AD","Parker’s Tavern, Cambridge: ‘Crowd-pleasing? You won’t want to leave’ – restaurant review<br>https://www.theguardian.com/food/2019/feb/17/parkers-tavern-cambridge-crowd-pleasing-wont-want-leave"
"Monsieur Le Duck, London: ‘It's like the first night of your French holiday’ – restaurant review","51.518852,-0.07851","Monsieur Le Duck","E1 6AN","Monsieur Le Duck, London: ‘It's like the first night of your French holiday’ – restaurant review<br>https://www.theguardian.com/food/2019/feb/03/monsieur-le-duck-london-its-like-the-first-night-of-your-french-holiday-restaurant-review"
"Olle, London: ‘The diners are the window display’","51.512019,-0.131613","Olle","W1D 6NG","Olle, London: ‘The diners are the window display’<br>https://www.theguardian.com/food/2019/jan/27/olle-london-puts-diners-on-display-restaurant-review"
"Pucci, London: ‘We revelled in nostalgia’ – restaurant review","51.512556,-0.142789","Pucci","W1S 1FX","Pucci, London: ‘We revelled in nostalgia’ – restaurant review<br>https://www.theguardian.com/food/2019/jan/20/pucci-london-we-revelled-in-nostalgia-restaurant-review"
"Imperial Treasure, London: ‘Conspicuous consumption’ – restaurant review","51.507928,-0.132775","Imperial Treasure","SW1Y 4BE","Imperial Treasure, London: ‘Conspicuous consumption’ – restaurant review<br>https://www.theguardian.com/food/2019/jan/13/imperial-treasure-london-conspicuous-consumption-restaurant-review"
"Gridiron, London: ‘So nearly but not quite’ – restaurant review","51.505055,-0.149943","Gridiron","W1K 1LB","Gridiron, London: ‘So nearly but not quite’ – restaurant review<br>https://www.theguardian.com/food/2019/jan/06/gridiron-london-jay-rayner-restaurant-review"
"Cantor’s Food Store, Chorlton: ‘It’s all very Ottolenghi with a Manc accent’ – restaurant review","53.445405,-2.277801","Cantor’s Food Store","M21 9PQ","Cantor’s Food Store, Chorlton: ‘It’s all very Ottolenghi with a Manc accent’ – restaurant review<br>https://www.theguardian.com/food/2018/dec/23/cantors-food-store-chorlton-its-all-very-ottolenghi-with-a-mancs-accent-restaurant-review-jay-rayner"
"Restaurant 92, Harrogate: ‘Takes admirable risks’ – restaurant review","53.990016,-1.537038","Restaurant 92","HG1 1HQ","Restaurant 92, Harrogate: ‘Takes admirable risks’ – restaurant review<br>https://www.theguardian.com/food/2018/dec/16/restaurant-92-harrogate-takes-admirable-risks-restaurant-review"
"The Urchin, Hove: ‘Does its thing with gusto’ – restaurant review","50.830522,-0.175401","The Urchin","BN3 3YS","The Urchin, Hove: ‘Does its thing with gusto’ – restaurant review<br>https://www.theguardian.com/food/2018/dec/09/the-urchin-hove-does-its-thing-with-gusto-restaurant-review-jay-rayner"
"Tish, London: ‘It's pretending to be a standard restaurant’ – review","51.550899,-0.165013","Tish","NW3 2AG","Tish, London: ‘It's pretending to be a standard restaurant’ – review<br>https://www.theguardian.com/food/2018/dec/02/tish-london-its-pretending-to-be-a-standard-restaurant-review"
"Cornerstone, London: ‘Beautiful fish shown respect’ – restaurant review","51.544302,-0.026179","Cornerstone","E9 5LX","Cornerstone, London: ‘Beautiful fish shown respect’ – restaurant review<br>https://www.theguardian.com/food/2018/nov/25/cornerstone-london-beautiful-fish-shown-resepct-restaurant-review"
"Wok Inn Seaside Noodle Bar, Blackpool: ‘Utterly beguiling’ – restaurant review","53.819305,-3.055205","Wok Inn Seaside Noodle Bar","FY1 1RA","Wok Inn Seaside Noodle Bar, Blackpool: ‘Utterly beguiling’ – restaurant review<br>https://www.theguardian.com/food/2018/nov/18/wok-inn-seaside-noodle-bar-blackpool-utterly-beguiling-restaurant-review"
"Röski, Liverpool: ‘Use any excuse to eat here’ – restaurant review","53.402776,-2.97332","Röski","L1 2TE","Röski, Liverpool: ‘Use any excuse to eat here’ – restaurant review<br>https://www.theguardian.com/food/2018/nov/11/roski-liverpool-use-any-excuse-to-eat-here-restaurant-review"
"Clam & Cork, Doncaster: ‘A small seafood café doing lovely things’ – restaurant review","53.524123,-1.133304","Clam & Cork","DN1 1NJ","Clam & Cork, Doncaster: ‘A small seafood café doing lovely things’ – restaurant review<br>https://www.theguardian.com/food/2018/oct/28/clam-and-cork-doncaster-a-small-seafood-cafe-doing-lovely-things-restuarant-review"
"Parsonage Grill, Oxford: ‘A lazy approach to cooking’ – restaurant review","51.761074,-1.260609","Parsonage Grill","OX2 6NN","Parsonage Grill, Oxford: ‘A lazy approach to cooking’ – restaurant review<br>https://www.theguardian.com/food/2018/oct/14/parsonage-grill-oxford-a-lazy-approach-to-cooking-restaurant-review"
"Rovi, London: ‘Dainty piles of ferments and pickles in children’s picture book colours' – restaurant review","51.51761,-0.138822","59 Wells Street","W1A 3AE","Rovi, London: ‘Dainty piles of ferments and pickles in children’s picture book colours' – restaurant review<br>https://www.theguardian.com/food/2018/sep/30/rovi-london-ottolenghi-kitchen-ferments-with-gay-abandon-restaurant-review-jay-rayner"
"Festa sul Prato: ‘Utterly cheery and fun and good-hearted’ – restaurant review","51.483287,-0.041636","Festa sul Prato","SE8 5JE","Festa sul Prato: ‘Utterly cheery and fun and good-hearted’ – restaurant review<br>https://www.theguardian.com/food/2018/sep/23/festa-sul-prato-utterly-cheery-and-fun-and-good-hearted-restaurant-review-jay-rayner"
"Xi’an Biang Biang Noodles, London: ‘I left thinking all was well in the world’ – restaurant review","51.516769,-0.073881","Xi’an Biang Biang Noodles","E1 7AL","Xi’an Biang Biang Noodles, London: ‘I left thinking all was well in the world’ – restaurant review<br>https://www.theguardian.com/food/2018/sep/16/xian-biang-biang-noodles-review-i-left-thinking-all-was-well-in-the-world-restaurant-jay-rayner"
"Casa do Frango: ‘London needs this delightful piri piri chicken joint’ – restaurant review","51.504829,-0.091662","Casa do Frango","SE1 1TU","Casa do Frango: ‘London needs this delightful piri piri chicken joint’ – restaurant review<br>https://www.theguardian.com/food/2018/sep/09/casa-do-frango-london-needs-this-delightful-piri-piri-chicken-joint-jay-rayner"
"Tozi, London: ‘Exceeds your expectations’ – restaurant review","51.494208,-0.141321","8 Gillingham Street","SW1V 1HJ","Tozi, London: ‘Exceeds your expectations’ – restaurant review<br>https://www.theguardian.com/food/2018/sep/02/tozi-london-exceeds-your-expectations-restaurant-review"
"Laurent at Café Royal, London: ‘Shameful pricing’ – restaurant review","51.50979,-0.135653","Laurent at Café Royal","W1B 4DY","Laurent at Café Royal, London: ‘Shameful pricing’ – restaurant review<br>https://www.theguardian.com/food/2018/aug/26/laurent-at-cafe-royal-london-shameful-pricing-restaurant-review"
"Stem, London: ‘We are fed delightfully’ – restaurant review","51.51467,-0.14279","Stem","W1B 2LF","Stem, London: ‘We are fed delightfully’ – restaurant review<br>https://www.theguardian.com/food/2018/aug/19/stem-london---we-are-fed-delightfully---restaurant-review"
"Brigadiers, London: ‘You’ll smell of roasted spices, garlic and happiness’ – restaurant review","51.512166,-0.09143","Brigadiers: 1-5 Bloomberg Arcade","EC4N 8AR","Brigadiers, London: ‘You’ll smell of roasted spices, garlic and happiness’ – restaurant review<br>https://www.theguardian.com/lifeandstyle/2018/aug/12/brigadiers-london-you-will-smell-of-roasted-spices-garlic-and-happiness-restaurant-review"
"The Painswick, Gloucestershire: ‘All the civilising powers of a good lunch’ – restaurant review","51.784542,-2.192888","The Painswick","GL6 6YB","The Painswick, Gloucestershire: ‘All the civilising powers of a good lunch’ – restaurant review<br>https://www.theguardian.com/lifeandstyle/2018/aug/05/the-painswick-all-the-civilising-powers-of-a-good-lunch-restaurant-review"
"Forza Win, Peckham: ‘An exceptionally brave venture’ – restaurant review","51.469999,-0.065128","Forza Win","SE15 3SN","Forza Win, Peckham: ‘An exceptionally brave venture’ – restaurant review<br>https://www.theguardian.com/lifeandstyle/2018/jul/29/forza-win-peckham-an-exceptionally-brave-venture-restaurant-review"
"The Duke of Richmond, Hackney: ‘Nothing prissy or mannered here’ – restaurant review","51.542041,-0.0697","The Duke of Richmond","E8 3NH","The Duke of Richmond, Hackney: ‘Nothing prissy or mannered here’ – restaurant review<br>https://www.theguardian.com/lifeandstyle/2018/jul/22/duke-richmond-hackney-restaurant-review-jay-rayner"
"Holborn Dining Room: ‘Its pork pie is a bold expression of pig’ – restaurant review","51.517329,-0.11779","Holborn Dining Room","WC1V 7EN","Holborn Dining Room: ‘Its pork pie is a bold expression of pig’ – restaurant review<br>https://www.theguardian.com/lifeandstyle/2018/jul/15/holborn-dining-room-its-pork-pie-is-a-bold-expression-of-pig-restaurant-review"
"Ugly Dumpling, London: ‘Inventive, cheap and hit-and-miss’ – restaurant review","51.513396,-0.138446","Ugly Dumpling","W1F 7RB","Ugly Dumpling, London: ‘Inventive, cheap and hit-and-miss’ – restaurant review<br>https://www.theguardian.com/lifeandstyle/2018/jul/08/ugly-dumpling-inventive-cheap-and-hit-and-miss-jay-rayner"
"House of Commons, London: ‘A nasty taste in my mouth’","51.49984,-0.124663","Strangers’ Dining Room at the House of Commons","SW1A 0AA","House of Commons, London: ‘A nasty taste in my mouth’<br>https://www.theguardian.com/lifeandstyle/2018/jul/01/house-of-commons-london-a-nasty-taste-in-my-mouth-restaurant-review"
"Thomas Carr Seafood and Grill, Devon: 'It demands to be liked’ – restaurant review","51.207329,-4.125404","Thomas Carr Seafood and Grill","EX34 9QB","Thomas Carr Seafood and Grill, Devon: 'It demands to be liked’ – restaurant review<br>https://www.theguardian.com/lifeandstyle/2018/jun/17/thomas-carr-seafood-and-grill-it-demands-to-be-liked-restaurant-review"
"The Coach, Farringdon: ‘Like greeting a much-missed old friend’ – restaurant review","51.52308,-0.109178","The Coach","EC1R 3DJ","The Coach, Farringdon: ‘Like greeting a much-missed old friend’ – restaurant review<br>https://www.theguardian.com/lifeandstyle/2018/jun/10/the-coach-farringdon-like-greeting-a-much-missed-old-friend-restaurant-review"
"The Birnam Brasserie, Gleneagles: ‘The cassoulet is a £23 travesty’ - restaurant review","56.283369,-3.752086","Birnam Brasserie","PH3 1NF","The Birnam Brasserie, Gleneagles: ‘The cassoulet is a £23 travesty’ - restaurant review<br>https://www.theguardian.com/lifeandstyle/2018/jun/03/birnam-brasserie-gleneagles-cassoulet-is-a-23-pound-travesty-restaurant-review"
"Alchemilla, Glasgow: ‘I used every ounce of willpower to decline seconds’ – restaurant review","55.865111,-4.284885","Alchemilla","G3 8TD","Alchemilla, Glasgow: ‘I used every ounce of willpower to decline seconds’ – restaurant review<br>https://www.theguardian.com/lifeandstyle/2018/may/27/alchemilla-glasgow-i-used-every-ounce-of-willpower-to-decline-seconds-restaurant-review"
"Heinz Beck, London: ‘Everything is over-engineered’","51.509168,-0.142351","Heinz Beck at Brown’s Hotel","W1S 4BP","Heinz Beck, London: ‘Everything is over-engineered’<br>https://www.theguardian.com/lifeandstyle/2018/may/20/heinz-beck-london-everything-is-overengineered-restaurant-review"
"Upstairs at No 1, Cromer: ‘A damn fine mouthful or six’ – restaurant review","52.93258,1.299414","Upstairs at No 1","NR27 9HP","Upstairs at No 1, Cromer: ‘A damn fine mouthful or six’ – restaurant review<br>https://www.theguardian.com/lifeandstyle/2018/may/13/upstairs-at-no-1-cromer-a-damn-fine-mouthful-or-six-restaurant-review"
"Moorcock Inn, West Yorkshire: ‘Head-spinningly good’ – restaurant review","53.693087,-1.920002","Moorcock Inn","HX6 3RP","Moorcock Inn, West Yorkshire: ‘Head-spinningly good’ – restaurant review<br>https://www.theguardian.com/lifeandstyle/2018/may/06/moorcock-inn-west-yorkshire-head-spinningly-good-restaurant-review"
"Gaijin Sushi, Birmingham: ‘An utter delight’ – restaurant review","52.47152,-1.899302","Gaijin Sushi","B5 7AH","Gaijin Sushi, Birmingham: ‘An utter delight’ – restaurant review<br>https://www.theguardian.com/lifeandstyle/2018/apr/29/gaijin-sushi-birmingham-an-utter-delight-restaurant-review-jay-rayner"
"Forest Side, Grasmere: ‘We ask for the bread to be taken away, it’s too good’ – restaurant review","54.463748,-3.015739","Forest Side","LA22 9RN","Forest Side, Grasmere: ‘We ask for the bread to be taken away, it’s too good’ – restaurant review<br>https://www.theguardian.com/lifeandstyle/2018/apr/15/jay-rayner-forest-side-grasmere-restaurant-review"
"Koconut Grove, Chester: ‘Eases you into a welcome coma’ – restaurant review","53.192734,-2.881338","Koconut Grove","CH1 3AT","Koconut Grove, Chester: ‘Eases you into a welcome coma’ – restaurant review<br>https://www.theguardian.com/lifeandstyle/2018/apr/08/koconut-grove-chester-eases-you-into-a-welcome-coma-restaurant-review"
"Beaverbrook, Surrey: ‘Not cheap, but shockingly good’ – restaurant review","51.277856,-0.307681","The Dining Room","KT22 8QX","Beaverbrook, Surrey: ‘Not cheap, but shockingly good’ – restaurant review<br>https://www.theguardian.com/lifeandstyle/2018/apr/01/beaverbrook-surrey-not-cheap-but-shockingly-good-restaurant-review"
"Studio 88, London: ‘Of course the cooking is going to be a disaster’ – restaurant review","51.509947,-0.131367","Studio 88","WC2H 7DH","Studio 88, London: ‘Of course the cooking is going to be a disaster’ – restaurant review<br>https://www.theguardian.com/lifeandstyle/2018/mar/25/studio-88-london-of-course-the-cooking-is-going-to-be-a-disaster-jay-rayner"
"United Chip, London: ‘Brilliant sauces and rather good chips’ – restaurant review","51.52311,-0.098812","United Chip","EC1M 5PE","United Chip, London: ‘Brilliant sauces and rather good chips’ – restaurant review<br>https://www.theguardian.com/lifeandstyle/2018/mar/18/united-chip-london-brilliant-sauces-and-rather-good-chips-restaurant-review"
"Farm Girl Café, Chelsea: ‘We don't stay for dessert, because we have suffered enough’ – restaurant review","51.485898,-0.179809","Farm Girl Café","SW10 0AJ","Farm Girl Café, Chelsea: ‘We don't stay for dessert, because we have suffered enough’ – restaurant review<br>https://www.theguardian.com/lifeandstyle/2018/mar/11/farm-girl-cafe-chelsea-we-dont-stay-for-dessert-because-we-have-suffered-enough-restaurant-review"
"The Greyhound Café, London: ‘There are things here I want to come back for’ – restaurant review","51.51835,-0.13784","The Greyhound Café","W1T 3LZ","The Greyhound Café, London: ‘There are things here I want to come back for’ – restaurant review<br>https://www.theguardian.com/lifeandstyle/2018/feb/25/the-greyhound-cafe-london-jay-rayner-restaurant-review"
"Henry’s, Bath: ‘A thoroughly lovely expression of the owner’ – restaurant review","51.386319,-2.362029","Henry’s","BA1 2QP","Henry’s, Bath: ‘A thoroughly lovely expression of the owner’ – restaurant review<br>https://www.theguardian.com/lifeandstyle/2018/feb/11/henrys-bath-restaurant-review-a-thoroughly-lovely-expression-of-the-owner-jay-rayner"
"Parsons, London: ‘Food you can’t forget’ – restaurant review","51.514511,-0.124911","Parsons","WC2H 9BA","Parsons, London: ‘Food you can’t forget’ – restaurant review<br>https://www.theguardian.com/lifeandstyle/2018/feb/04/parsons-london-food-you-cant-forget-restaurant-review-jay-rayner"
"Edo, Belfast: ‘Go there for the wood-fired oven’ – restaurant review","54.596472,-5.933459","Edo","BT1 6FB","Edo, Belfast: ‘Go there for the wood-fired oven’ – restaurant review<br>https://www.theguardian.com/lifeandstyle/2018/jan/28/edo-belfast-go-there-for-the-wood-fired-oven-restaurant-review"
"L’Escargot, London: ‘Let’s hope it never changes’ – restaurant review","51.513953,-0.131059","L’Escargot","W1D 4EF","L’Escargot, London: ‘Let’s hope it never changes’ – restaurant review<br>https://www.theguardian.com/lifeandstyle/2018/jan/21/lescargot-london-lets-hope-it-never-changes-restaurant-review"
"Sanxia Renjia, London: ‘Enough excitement for a month’ – restaurant review","51.47442,-0.02456","Sanxia Renjia","SE8 4PQ","Sanxia Renjia, London: ‘Enough excitement for a month’ – restaurant review<br>https://www.theguardian.com/lifeandstyle/2018/jan/14/sanxia-renjia-london-enough-excitement-for-a-month-restaurant-review"
"Treves and Hyde, London: ‘A fitting end to a year of cheer’ – restaurant review","51.514481,-0.070839","Treves and Hyde","E1 8EN","Treves and Hyde, London: ‘A fitting end to a year of cheer’ – restaurant review<br>https://www.theguardian.com/lifeandstyle/2017/dec/31/treves-and-hyde-london-a-fitting-end-to-a-year-of-cheer-restaurant-review"
"Sushi Atelier: ‘It’s impressive without being neurotic’ – restaurant review","51.519445,-0.142235","Sushi Atelier","W1W 6PH","Sushi Atelier: ‘It’s impressive without being neurotic’ – restaurant review<br>https://www.theguardian.com/lifeandstyle/2017/dec/24/sushi-atelier-its-impressive-without-being-neurotic-restaurant-review"
"Palatino: ‘Better than in Rome’ – restaurant review","51.525322,-0.09643","Palatino","EC1V 8AB","Palatino: ‘Better than in Rome’ – restaurant review<br>https://www.theguardian.com/lifeandstyle/2017/dec/17/palatino-better-than-most-of-the-places-in-rome-restaurant-review"
"Simpson’s in the Strand: ‘I can’t love it any more’ – restaurant review","51.51055,-0.120721","Simpson’s in the Strand","WC2R 0EW","Simpson’s in the Strand: ‘I can’t love it any more’ – restaurant review<br>https://www.theguardian.com/lifeandstyle/2017/dec/10/simpsons-in-the-strand-london-i-cant-love-it-any-more-restaurant-review"
"Gul & Sepoy: 'Not as clever as it thinks it is’ – restaurant review","51.517646,-0.074078","Gul and Sepoy","E1 6BD","Gul & Sepoy: 'Not as clever as it thinks it is’ – restaurant review<br>https://www.theguardian.com/lifeandstyle/2017/dec/03/gul-sepoy-not-as-clever-as-it-thinks-it-is-restaurant-review"
"Rochelle Bar and Canteen, London: ‘This food feels right’ – restaurant review","51.50663,-0.130335","Rochelle Bar and Canteen at the ICA","SW1Y 5AH","Rochelle Bar and Canteen, London: ‘This food feels right’ – restaurant review<br>https://www.theguardian.com/lifeandstyle/2017/nov/26/rochelle-bar-and-canteen-london-this-food-feels-right-restaurant-review"
"The Cartford Inn, Lancashire: ‘Long may it flourish’ – restaurant review","53.858414,-2.881861","The Cartford Inn","PR3 0YP","The Cartford Inn, Lancashire: ‘Long may it flourish’ – restaurant review<br>https://www.theguardian.com/lifeandstyle/2017/nov/12/the-cartford-inn-lancashire-long-may-it-flourish-restaurant-review"
"Fishers in the City, Edinburgh: ‘It needs a friendly whack’ – restaurant review","55.953847,-3.199387","Fishers In the City","EH2 1EN","Fishers in the City, Edinburgh: ‘It needs a friendly whack’ – restaurant review<br>https://www.theguardian.com/lifeandstyle/2017/nov/05/fishers-in-the-city-edinburgh-it-needs-a-friendly-whack-restaurant-review"
"The Game Bird, London: ‘This is a love letter’ – restaurant review","51.505909,-0.14038","The Game Bird","SW1A 1NJ","The Game Bird, London: ‘This is a love letter’ – restaurant review<br>https://www.theguardian.com/lifeandstyle/2017/oct/29/the-game-bird-london-this-is-a-love-letter-restaurant-review"
"Piecaramba!: ‘A bloody good pie shop’ – restaurant review","51.063437,-1.313821","Piecaramba!","SO23 8AT","Piecaramba!: ‘A bloody good pie shop’ – restaurant review<br>https://www.theguardian.com/lifeandstyle/2017/oct/22/piecaramba-winchester-bloody-good-pie-shop-restaurant-review-jay-rayner"
"Salt, Stratford-upon-Avon: ‘I have skin in the game. I want this place to be great’ – restaurant review","52.189697,-1.708886","Salt","CV37 6HB","Salt, Stratford-upon-Avon: ‘I have skin in the game. I want this place to be great’ – restaurant review<br>https://www.theguardian.com/lifeandstyle/2017/oct/15/salt-stratford-upon-avon-restaurant-review-jay-rayner"
"Ox Club: ‘A poseur’s charter but they know what they’re doing’ – restaurant review","53.798833,-1.540855","Ox Club","LS1 6PU","Ox Club: ‘A poseur’s charter but they know what they’re doing’ – restaurant review<br>https://www.theguardian.com/lifeandstyle/2017/oct/01/ox-club-leeds-restaurant-review-jay-rayner"
"Seoul Kimchi, Manchester: ‘The soup should be offered on prescription’ – restaurant review","53.460839,-2.221648","Seoul Kimchi","M13 0HR","Seoul Kimchi, Manchester: ‘The soup should be offered on prescription’ – restaurant review<br>https://www.theguardian.com/lifeandstyle/2017/sep/24/seoul-kimchi-manchester-the-soupd-should-be-offered-on-prescription-restaurant-review"
"Da Maria: ‘The kind of place that keeps London human’ – restaurant review","51.508715,-0.197475","Da Maria","W11 3JZ","Da Maria: ‘The kind of place that keeps London human’ – restaurant review<br>https://www.theguardian.com/lifeandstyle/2017/sep/17/da-maria-london-the-kind-of-place-that-keeps-london-human-restaurant-review"
"Jean-Georges at the Connaught, London: ‘The prices are stupid’ – restaurant review","51.510156,-0.149631","Jean-Georges at the Connaught","W1K 2AL","Jean-Georges at the Connaught, London: ‘The prices are stupid’ – restaurant review<br>https://www.theguardian.com/lifeandstyle/2017/sep/03/jean-georges-at-the-connaught-london-my-love-remains-restaurant-review"
"Fancy Crab, London: ‘A terrible waste of time’ – restaurant review","51.5161,-0.151365","92 Wigmore Street","W1U 3RD","Fancy Crab, London: ‘A terrible waste of time’ – restaurant review<br>https://www.theguardian.com/lifeandstyle/2017/aug/27/fancy-crab-london-a-terrible-waste-of-time"
"Picture Fitzrovia, London: ‘Exceptionally good’ – restaurant review","51.519391,-0.142238","Picture Fitzrovia","W1W 6PQ","Picture Fitzrovia, London: ‘Exceptionally good’ – restaurant review<br>https://www.theguardian.com/lifeandstyle/2017/aug/20/picture-fitzrovia-london-exceptionally-good-restaurant-review"
"The Old House, Hull: ‘It could be great…’ – restaurant review","53.742637,-0.332387","The Old House by Shoot the Bull","HU1 1LA","The Old House, Hull: ‘It could be great…’ – restaurant review<br>https://www.theguardian.com/lifeandstyle/2017/aug/13/the-old-house-hull-restaurant-review-jay-rayner"
"Bang Bang Oriental Foodhall, London: ‘Everything is on show’ – restaurant review","51.593347,-0.259517","Bang Bang Oriental Foodhall","NW9 0FH","Bang Bang Oriental Foodhall, London: ‘Everything is on show’ – restaurant review<br>https://www.theguardian.com/lifeandstyle/2017/aug/06/bang-bang-oriental-foodhall-london-everything-is-on-show-restaurant-review"
"Mr P’s Curious Tavern, York: ‘Exhausting’ – restaurant review","53.960678,-1.081229","Mr P’s Curious Tavern","YO1 7HY","Mr P’s Curious Tavern, York: ‘Exhausting’ – restaurant review<br>https://www.theguardian.com/lifeandstyle/2017/jul/30/mr-ps-curious-tavern-york-exhausting-restaurant-review"
"Plaquemine Lock, London: ‘A celebration of the food of Louisiana’ – restaurant review","51.532589,-0.100323","Plaquemine Lock","N1 8LB","Plaquemine Lock, London: ‘A celebration of the food of Louisiana’ – restaurant review<br>https://www.theguardian.com/lifeandstyle/2017/jul/23/plaquemine-lock-a-celebration-of-the-food-of-louisiana-restaurant-review"
"The Garden Café, London: 'A lovely new space' – restaurant review","51.495049,-0.120195","The Garden Café","SE1 7LB","The Garden Café, London: 'A lovely new space' – restaurant review<br>https://www.theguardian.com/lifeandstyle/2017/jul/16/the-garden-cafe-london-restaurant-review"
"Roth Bar & Grill, Bruton: restaurant review","51.109772,-2.448898","Roth Bar & Grill","BA10 0NL","Roth Bar & Grill, Bruton: restaurant review<br>https://www.theguardian.com/lifeandstyle/2017/jul/09/jay-rayner-roth-bar-and-grill-restaurant-review"
"El Pastór, London: restaurant review","51.505108,-0.091074","El Pastor","SE1 9AA","El Pastór, London: restaurant review<br>https://www.theguardian.com/lifeandstyle/2017/jul/02/el-pastor-london-restaurant-review"
"The Cat’s Pyjamas, Leeds: restaurant review","53.798957,-1.538475","The Cat’s Pyjamas","LS2 7LY","The Cat’s Pyjamas, Leeds: restaurant review<br>https://www.theguardian.com/lifeandstyle/2017/jun/18/the-cats-pyjamas-restaurant-review"
"Westerns Laundry, London: restaurant review","51.551432,-0.107788","Westerns Laundry","N5 1PB","Westerns Laundry, London: restaurant review<br>https://www.theguardian.com/lifeandstyle/2017/jun/11/westerns-laundry-london-restaurant-review"
"Zobler’s Delicatessen, London: restaurant review","51.513633,-0.08942","Zobler’s Delicatessen","EC2R 8BP","Zobler’s Delicatessen, London: restaurant review<br>https://www.theguardian.com/lifeandstyle/2017/jun/04/zoblers-delicatessen-london-restaurant-review"
"The Test Kitchen, London - restaurant review","51.513716,-0.13202","The Test Kitchen","W1D 4SL","The Test Kitchen, London - restaurant review<br>https://www.theguardian.com/lifeandstyle/2017/may/28/the-test-kitchen-london-restaurant-review-jay-rayner"
"Plot, London: restaurant review","51.428147,-0.166429","Plot","SW17 0RL","Plot, London: restaurant review<br>https://www.theguardian.com/lifeandstyle/2017/may/21/plot-london-restaurant-review-jay-rayner"
"Radici, London: restaurant review","51.539744,-0.103079","Radici","N1 1AD","Radici, London: restaurant review<br>https://www.theguardian.com/lifeandstyle/2017/may/14/radici-london-restaurant-review-jay-rayner"
"London Shell Co, Paddington: restaurant review","51.519548,-0.17964","London Shell Co","W2 6EP","London Shell Co, Paddington: restaurant review<br>https://www.theguardian.com/lifeandstyle/2017/may/07/london-shell-co-paddington-restaurant-review"
"Koj, Cheltenham: restaurant review","51.899543,-2.075201","Koj","GL50 1HE","Koj, Cheltenham: restaurant review<br>https://www.theguardian.com/lifeandstyle/2017/apr/30/koj-cheltenham-jay-rayner-restaurant-review"
"Claude Bosi at Bibendum: restaurant review","51.493078,-0.168407","81 Fulham Road","SW3 6RD","Claude Bosi at Bibendum: restaurant review<br>https://www.theguardian.com/lifeandstyle/2017/apr/23/claude-bosi-at-bibendum-london-restaurant-review-jay-rayner"
"Box-E, Bristol: restaurant review","51.446974,-2.599118","Box-E","BS1 6WP","Box-E, Bristol: restaurant review<br>https://www.theguardian.com/lifeandstyle/2017/apr/16/box-e-bristol-restaurant-review-jay-rayner"
"The Other Naughty Piglet, London: restaurant review","51.49871,-0.142261","The Other Naughty Piglet","SW1E 5JA","The Other Naughty Piglet, London: restaurant review<br>https://www.theguardian.com/lifeandstyle/2017/apr/02/the-other-naughty-piglet-london-restaurant-review"
"Wilsons, Bristol: restaurant review","51.46796,-2.604704","Wilsons","BS6 6PF","Wilsons, Bristol: restaurant review<br>https://www.theguardian.com/lifeandstyle/2017/mar/26/wilsons-bristol-restaurant-review"
"The Peach Tree and Momo-No-Ki, Shrewsbury: restaurant review","52.70753,-2.744992","The Peach Tree and Momo-No-Ki","SY2 6AE","The Peach Tree and Momo-No-Ki, Shrewsbury: restaurant review<br>https://www.theguardian.com/lifeandstyle/2017/mar/19/the-peach-tree-and-the-momo-no-ki-shrewsbury-restaurant-review"
"Skosh, York: restaurant review","53.956621,-1.090264","98 Micklegate","YO1 6JX","Skosh, York: restaurant review<br>https://www.theguardian.com/lifeandstyle/2017/mar/05/skosh-york-restaurant-review"
"Bundobust, Manchester: restaurant review","53.481009,-2.234755","Bundobust","M1 2AQ","Bundobust, Manchester: restaurant review<br>https://www.theguardian.com/lifeandstyle/2017/feb/26/bundobust-manchester-restaurant-review"
"Chop Chop, Edinburgh: restaurant review","55.946375,-3.215489","Chop Chop","EH3 8DT","Chop Chop, Edinburgh: restaurant review<br>https://www.theguardian.com/lifeandstyle/2017/feb/19/chop-chop-edinburgh-restaurant-review"
"The Salt Room, Brighton: restaurant review","50.821685,-0.148783","The Salt Room","BN1 2FU","The Salt Room, Brighton: restaurant review<br>https://www.theguardian.com/lifeandstyle/2017/feb/12/the-salt-room-brighton-restaurant-review"
"Louie Louie, London: restaurant review","51.485746,-0.093744","Louie Louie","SE17 2AL","Louie Louie, London: restaurant review<br>https://www.theguardian.com/lifeandstyle/2017/feb/05/louis-louis-london-restaurant-review"
"108 Garage, London: restaurant review","51.521806,-0.208941","108 Garage","W10 5PS","108 Garage, London: restaurant review<br>https://www.theguardian.com/lifeandstyle/2017/jan/29/108-garage-london-restaurant-review-jay-rayner"
"Tandoor Chop House, London: restaurant review","51.509049,-0.125715","Tandoor Chop House","WC2N 4HZ","Tandoor Chop House, London: restaurant review<br>https://www.theguardian.com/lifeandstyle/2017/jan/22/tandoor-chop-house-london-restaurant-review-jay-rayner"
"Jihwaja, London: restaurant review","51.486203,-0.119346","Jihwaja","SE11 5QY","Jihwaja, London: restaurant review<br>https://www.theguardian.com/lifeandstyle/2017/jan/15/jihwaja-london-restaurant--review-jay-rayner"
"Aquavit, London: restaurant review","51.50883,-0.133405","Aquavit","SW1Y 4QQ","Aquavit, London: restaurant review<br>https://www.theguardian.com/lifeandstyle/2017/jan/08/aquavit-restaurant-review-jay-rayner"
"The Holy Birds, London: restaurant review","51.516755,-0.076753","The Holy Birds","E1 7EZ","The Holy Birds, London: restaurant review<br>https://www.theguardian.com/lifeandstyle/2017/jan/01/the-holy-birds-london-restaurant-review"
"Veneta, London: restaurant review","51.509146,-0.132873","Veneta","SW1Y 4RJ","Veneta, London: restaurant review<br>https://www.theguardian.com/lifeandstyle/2016/dec/18/veneta-london-restaurant-review-2016-highlights"
"Sambal Shiok, London: restaurant review","51.583935,-0.10029","Sambal Shiok (inside Blend )","N8 0RG","Sambal Shiok, London: restaurant review<br>https://www.theguardian.com/lifeandstyle/2016/dec/04/sambal-shiok-london-restaurant-review-jay-rayner"
"Yosma, London: restaurant review","51.518749,-0.155668","Yosma","W1U 7BT","Yosma, London: restaurant review<br>https://www.theguardian.com/lifeandstyle/2016/nov/20/yosma-london-restaurant-review"
"Margot, London: restaurant review","51.515139,-0.121876","Margot","WC2B 5AA","Margot, London: restaurant review<br>https://www.theguardian.com/lifeandstyle/2016/nov/13/margot-london-restaurant-review-jay-rayner"
"Jaya, Llandudno: restaurant review","53.324505,-3.839605","Jaya","LL30 2HN","Jaya, Llandudno: restaurant review<br>https://www.theguardian.com/lifeandstyle/2016/nov/06/jaya-llandudno-restaurant-review-jay-rayner"
"Foley’s: restaurant review","51.519363,-0.14048","Foley’s","W1W 6DU","Foley’s: restaurant review<br>https://www.theguardian.com/lifeandstyle/2016/oct/23/foleys-restaurant-review-jay-rayner"
"Mercato Metropolitano: restaurant review","51.498456,-0.098372","Mercato Metropolitano","SE1 6DR","Mercato Metropolitano: restaurant review<br>https://www.theguardian.com/lifeandstyle/2016/oct/16/mercato-metropolitano-restaurant-review-jay-rayner"
"Gino D’Acampo - My Restaurant: restaurant review","51.528664,-0.133296","Gino D’Acampo: My Restaurant","NW1 2DU","Gino D’Acampo - My Restaurant: restaurant review<br>https://www.theguardian.com/lifeandstyle/2016/oct/09/gino-dacampo-my-restaurant-review-jay-rayner"
"The Bull and Ram: restaurant review","54.400286,-5.898877","The Bull & Ram","BT24 8AG","The Bull and Ram: restaurant review<br>https://www.theguardian.com/lifeandstyle/2016/oct/02/the-bull-and-ram-county-down-restaurant-review"
"Umezushi: Manchester restaurant review","53.487763,-2.246034","Umezushi","M3 1PJ","Umezushi: Manchester restaurant review<br>https://www.theguardian.com/lifeandstyle/2016/sep/25/umezushi-restaurant-review"
"Som Saa: restaurant review","51.517646,-0.074078","Som Saa","E1 6BD","Som Saa: restaurant review<br>https://www.theguardian.com/lifeandstyle/2016/sep/18/som-saa-restaurant-review-jay-rayner"
"Clipstone: London restaurant review","51.520811,-0.142209","Clipstone","W1W 6BB","Clipstone: London restaurant review<br>https://www.theguardian.com/lifeandstyle/2016/sep/11/clipstone-restaurant-review-jay-rayner"
"Hantverk & Found: restaurant review","51.389881,1.382553","Hantverk & Found","CT9 1DA","Hantverk & Found: restaurant review<br>https://www.theguardian.com/lifeandstyle/2016/sep/04/hantverk-and-found-margate-restaurant-review"
"The Classroom: restaurant review","51.470297,-3.173893","The Classroom","CF10 5FE","The Classroom: restaurant review<br>https://www.theguardian.com/lifeandstyle/2016/aug/28/the-classroom-cardiff-restaurant-review"
"The Good Egg: restaurant review","51.562063,-0.078201","The Good Egg","N16 0AS","The Good Egg: restaurant review<br>https://www.theguardian.com/lifeandstyle/2016/aug/21/the-good-egg-london-restaurant-review-jay-rayner"
"Chriskitch Hoxton: restaurant review","51.52717,-0.083001","Chriskitch Hoxton","N1 6HG","Chriskitch Hoxton: restaurant review<br>https://www.theguardian.com/lifeandstyle/2016/aug/14/chriskitch-hoxton-london-restaurant-review"
"On Café, London: restaurant review","51.46121,-0.136079","On Café","SW4 7EE","On Café, London: restaurant review<br>https://www.theguardian.com/lifeandstyle/2016/aug/07/on-cafe-london-restaurant-review-jay-rayner"
"The Woodspeen, Berkshire: restaurant review","51.415392,-1.352078","The Woodspeen","RG20 8BN","The Woodspeen, Berkshire: restaurant review<br>https://www.theguardian.com/lifeandstyle/2016/jul/31/the-woodspeen-berkshire-restaurant-review-jay-rayner"
"The Astor Grill at Cliveden House, Berkshire: restaurant review","51.558194,-0.688303","The Astor Grill at Cliveden House","SL6 0JF","The Astor Grill at Cliveden House, Berkshire: restaurant review<br>https://www.theguardian.com/lifeandstyle/2016/jul/24/the-astor-grill-at-cliveden-house-berkshire-restaurant-review-jay-rayner"
"Petit Pois Bistro: restaurant review","51.52778,-0.081822","Petit Pois Bistro","N1 6NU","Petit Pois Bistro: restaurant review<br>https://www.theguardian.com/lifeandstyle/2016/jul/17/petit-pois-bistro-restaurant-review-jay-rayner"
"Blandford Comptoir, London: restaurant review","51.518204,-0.151914","Blandford Comptoir","W1U 3DA","Blandford Comptoir, London: restaurant review<br>https://www.theguardian.com/lifeandstyle/2016/jul/10/blandford-comptoir-london-restaurant-review"
"Santo Remedio, London: restaurant review","51.525998,-0.082271","22 Rivington Street","EC2A 3DY","Santo Remedio, London: restaurant review<br>https://www.theguardian.com/lifeandstyle/2016/jul/03/santo-remedio-restaurant-review-london-jay-rayner"
"Flank at the Cow, Brighton: restaurant review","50.829884,-0.147267","Flank at the Cow","BN1 3JE","Flank at the Cow, Brighton: restaurant review<br>https://www.theguardian.com/lifeandstyle/2016/jun/26/flank-at-the-cow-brighton-restaurant-review-jay-rayner"
"Corkage: restaurant review","51.387579,-2.358762","Corkage","BA1 5BG","Corkage: restaurant review<br>https://www.theguardian.com/lifeandstyle/2016/jun/12/corkage-bath-restaurant-review-jay-rayner"
"Theo’s Simple Italian, London: restaurant review","51.492064,-0.191794","Theo’s Simple Italian","SW5 0EW","Theo’s Simple Italian, London: restaurant review<br>https://www.theguardian.com/lifeandstyle/2016/jun/05/theos-simple-italian-restaurant-review"
"Mannings, Truro: restaurant review","50.262782,-5.051328","Mannings Hotel","TR1 2QB","Mannings, Truro: restaurant review<br>https://www.theguardian.com/lifeandstyle/2016/may/15/mannings-truro-restaurant-review-jay-rayner"
"The Sichuan, London: restaurant review","51.522091,-0.087426","The Sichuan","EC1Y 2AA","The Sichuan, London: restaurant review<br>https://www.theguardian.com/lifeandstyle/2016/may/08/the-sichuan-london-restaurant-review"
"Savini at Criterion: restaurant review","51.509774,-0.13404","Savini at Criterion","W1J 9HP","Savini at Criterion: restaurant review<br>https://www.theguardian.com/lifeandstyle/2016/apr/24/savini-at-criterion-restaurant-review-london-jay-rayner"